{"type":"FeatureCollection","features":[{"type":"Feature","properties":{"name":"ION Cable System-1 (ICS1)"},"geometry":{"type":"MultiLineString","coordinates":[[[105.585,-5.769],[105.615,-6.002],[105.884,-6.074]],[[105.817,-5.366],[106.08,-5.726],[106.15,-6.12]],[[106.468,-3.016],[106.616,-3.479],[106.762,-4.601],[106.547,-5.274],[106.791,-5.797],[107.121,-5.981]],[[104.017,1.067],[104.15,0.153],[104.103,-0.321],[103.461,-0.819],[103.943,-0.704],[104.419,-0.704],[105.196,-0.914],[105.333,-1.298],[105.583,-1.554]]]}},{"type":"Feature","properties":{"name":"I-2SEA"},"geometry":{"type":"MultiLineString","coordinates":[[[101.444,2.751],[101.302,2.639],[101.164,2.391]],[[83.69933016087016,14.411318533832477],[88.418,13.776],[90.251,12.617],[91.945,10.598],[93.104,9.845],[95.213,8.141],[97.28,6.382],[98.345,5.469],[99.379,4.614],[100.332,3.156],[101.302,2.263],[102.108,1.867],[102.696,1.589],[103.646,1.339]]]}},{"type":"Feature","properties":{"name":"MViSTA"},"geometry":{"type":"MultiLineString","coordinates":[[[103.646,1.339],[103.51,1.182],[103.641,1.027],[104.313,1.264],[104.549,1.413],[104.55,1.414],[104.551,1.415],[104.553,1.416],[104.554,1.417],[104.555,1.418],[104.556,1.419],[104.557,1.42],[104.558,1.421],[104.559,1.422],[104.56,1.424],[104.561,1.425],[104.562,1.426],[104.563,1.427],[104.564,1.429],[104.565,1.43],[104.566,1.431],[104.566,1.433],[104.567,1.434],[104.568,1.436],[104.568,1.437],[104.569,1.438],[104.569,1.44],[104.57,1.441],[104.57,1.443],[104.57,1.444],[104.571,1.446],[104.571,1.447],[104.571,1.449],[104.571,1.45],[104.572,1.452],[104.572,1.453],[104.572,1.455],[104.572,1.456],[104.572,1.458],[104.572,1.459],[104.571,1.461],[104.571,1.463],[104.571,1.464],[104.571,1.466],[104.57,1.467],[104.57,1.469],[104.569,1.47],[104.569,1.472],[104.568,1.473],[104.568,1.475],[104.567,1.476],[104.566,1.477],[104.566,1.479],[104.564,1.482],[104.564,1.482],[104.479,1.617]],[[102.867,7.744],[102.968,6.828],[104.157,5.286],[104.329,3.409],[104.409,2.607],[104.625,2.472],[104.479,1.617],[104.328,1.429],[104.327,1.429],[104.327,1.428],[104.326,1.428],[104.326,1.427],[104.326,1.427],[104.325,1.426],[104.325,1.426],[104.324,1.425],[104.324,1.425],[104.323,1.424],[104.323,1.424],[104.322,1.423],[104.322,1.423],[104.321,1.422],[104.321,1.422],[104.32,1.422],[104.32,1.421],[104.319,1.421],[104.319,1.42],[104.318,1.42],[104.318,1.419],[104.317,1.419],[104.317,1.419],[104.316,1.418],[104.316,1.418],[104.315,1.417],[104.315,1.417],[104.314,1.416],[104.314,1.416],[104.313,1.416],[104.313,1.415],[104.312,1.415],[104.312,1.414],[104.311,1.414],[104.311,1.414],[104.31,1.413],[104.31,1.413],[104.309,1.413],[104.308,1.412],[104.308,1.412],[104.307,1.412],[104.307,1.411],[104.306,1.411],[104.306,1.41],[104.305,1.41],[104.305,1.41],[104.304,1.409],[104.303,1.409],[104.302,1.408],[104.302,1.408],[104.153,1.348]],[[107.079,10.342],[107.59,9.436],[107.502,8.912],[106.681,8.58],[105.318,8.191],[102.867,7.744]],[[101.277,12.671],[101.277,12.135],[101.378,11.37],[101.231,9.106],[101.41,8.728],[102.867,7.744],[100.595,7.199]]]}},{"type":"Feature","properties":{"name":"FEA"},"geometry":{"type":"MultiLineString","coordinates":[[[100.066,6.614],[100.294,6.908],[100.595,7.199]],[[100.41,5.368],[99.675,5.51],[97.425,6.908]],[[81.00001685476798,4.389285926050993],[85.5,5.51],[90.0,6.405],[92.7,6.405],[94.275,6.629],[95.4,6.629],[97.425,6.908],[99.0,6.852],[99.675,6.74],[100.066,6.614]]]}},{"type":"Feature","properties":{"name":"PASELA"},"geometry":{"type":"MultiLineString","coordinates":[[[132.752,-5.635],[132.751,-5.638],[132.752,-5.644],[132.754,-5.653],[132.758,-5.664],[132.763,-5.678],[132.77,-5.695],[132.777,-5.714],[132.786,-5.735],[132.796,-5.759],[132.807,-5.784],[132.819,-5.812],[132.831,-5.841],[132.845,-5.872],[132.859,-5.904],[132.874,-5.938],[132.89,-5.973],[132.907,-6.009],[132.923,-6.046],[132.941,-6.084],[132.959,-6.123],[132.977,-6.163],[132.995,-6.202],[133.014,-6.243],[133.033,-6.283],[133.051,-6.324],[133.07,-6.364],[133.089,-6.405],[133.108,-6.445],[133.127,-6.485],[133.145,-6.524],[133.163,-6.562],[133.181,-6.6],[133.198,-6.637],[133.215,-6.673],[133.232,-6.707],[133.247,-6.741],[133.262,-6.772],[133.277,-6.803],[133.29,-6.831],[133.303,-6.858],[133.315,-6.883],[133.326,-6.906],[133.335,-6.926],[133.344,-6.945],[133.352,-6.96],[133.358,-6.974],[133.363,-6.984],[133.367,-6.992],[133.37,-6.998],[133.37,-6.998],[134.553,-7.302],[136.292,-8.332],[137.242,-9.142],[138.617,-9.291],[140.047,-9.068],[140.405,-8.499]]]}},{"type":"Feature","properties":{"name":"I-AM Cable"},"geometry":{"type":"MultiLineString","coordinates":[[[104.941,1.737],[105.236,1.57],[108.775,1.893],[109.125,2.25],[109.832,2.953],[111.198,3.456],[114.403,5.79],[116.495,8.709],[119.086,12.265],[118.694,15.197],[118.8,17.811],[119.571,18.516],[120.15,19.025],[121.177,19.65],[122.944,20.681],[124.978,22.007],[125.688,23.607],[126.39,25.573],[126.977,26.301],[127.701,28.51]],[[104.004,1.373],[104.941,1.737],[104.114,1.926]]]}},{"type":"Feature","properties":{"name":"Dhivaru"},"geometry":{"type":"MultiLineString","coordinates":[[[72.96721004468763,-0.856036275299538],[95.013,-8.952],[105.697,-10.437]]]}},{"type":"Feature","properties":{"name":"Asia United Gateway East (AUG East)"},"geometry":{"type":"MultiLineString","coordinates":[[[111.397,6.172],[113.005,5.488],[114.238,4.589]],[[104.114,1.926],[104.874,1.893]],[[118.643,17.115],[120.355,16.831]],[[120.89,22.34],[121.568,21.925]],[[121.815,24.644],[122.546,23.363]],[[104.362,1.27],[104.874,1.893],[105.019,2.695],[105.625,3.122],[108.124,4.522],[110.049,5.387],[110.777,5.852],[114.125,7.582],[116.339,8.922],[118.957,12.323],[118.545,15.205],[118.681,17.86],[119.636,18.713],[120.074,19.097],[120.151,19.766],[120.61,21.529],[121.002,21.515],[122.273,22.414],[122.814,24.286],[125.355,27.946],[128.942,30.0]],[[103.987,1.389],[104.362,1.27],[104.017,1.067]]]}},{"type":"Feature","properties":{"name":"Trans Global Cable System (TGCS)"},"geometry":{"type":"MultiLineString","coordinates":[[[109.969,-1.882],[109.599,-2.109],[109.266,-2.528]],[[104.017,1.067],[105.264,0.513],[107.002,-0.56],[109.266,-2.528],[107.301,-5.441],[107.115,-5.983]]]}},{"type":"Feature","properties":{"name":"Candle"},"geometry":{"type":"MultiLineString","coordinates":[[[121.801,24.864],[123.103,23.606],[125.131,22.026]],[[120.623,14.088],[120.608,13.572]],[[124.703,16.185],[123.513,15.789],[122.202,15.763],[121.56,15.762]],[[104.017,1.067],[104.436,1.371],[104.381,1.746],[104.112,1.935]],[[103.987,1.389],[104.791,1.389],[108.808,1.737],[109.832,2.732],[111.395,3.279],[114.515,5.678],[116.082,7.767],[116.693,8.771],[119.6,12.603],[120.183,13.136],[120.608,13.572],[121.299,13.615],[122.396,12.755],[123.448,12.714],[124.095,12.319],[124.51,12.899],[125.131,22.026],[125.825,23.606],[127.328,24.813],[136.026,29.171]]]}},{"type":"Feature","properties":{"name":"Indonesia Tengah Cable Systems"},"geometry":{"type":"MultiLineString","coordinates":[[[120.463,-6.121],[120.142,-5.859]],[[119.856,-6.109],[120.0,-8.135],[119.872,-8.495],[118.998,-7.815],[117.862,-8.108],[117.331,-7.582],[116.671,-7.684],[116.021,-8.056],[115.778,-9.011],[115.331,-9.033],[115.26,-8.695]],[[122.528,-2.58],[122.167,-2.83]],[[123.534,-5.322],[123.353,-5.231]],[[122.597,-5.507],[122.56,-5.906]],[[122.787,-0.941],[122.763,-1.213],[122.4,-2.006],[122.763,-3.646],[122.513,-3.998],[123.102,-3.927],[123.415,-4.024],[123.476,-4.974],[123.011,-5.949],[120.332,-5.692],[119.856,-6.109],[118.905,-5.669],[118.871,-5.473],[119.407,-5.154]]]}},{"type":"Feature","properties":{"name":"Taiwan-Matsu No.4"},"geometry":{"type":"MultiLineString","coordinates":[[[121.463,25.169],[121.096,25.679],[120.493,26.367],[120.324,26.155],[119.934,26.155],[119.961,26.074],[119.961,26.032],[119.939,25.967]]]}},{"type":"Feature","properties":{"name":"RISING 8"},"geometry":{"type":"MultiLineString","coordinates":[[[104.133,1.174],[103.987,1.375]]]}},{"type":"Feature","properties":{"name":"RISING 8"},"geometry":{"type":"MultiLineString","coordinates":[[[107.121,-5.981],[106.411,-4.603],[106.979,-2.961],[106.516,-1.514],[105.407,0.176],[104.941,0.723],[104.538,0.869],[104.133,1.174]]]}},{"type":"Feature","properties":{"name":"Project Waterworth"},"geometry":{"type":"MultiLineString","coordinates":[[[87.723,-1.762],[90.099,-1.292],[92.738,3.46],[94.316,4.5],[95.472,5.743],[97.425,6.161],[99.685,5.864],[100.41,5.368]],[[80.97374466123836,1.869852037928076],[85.5,-1.271],[87.291,-0.857]],[[84.12223509182334,5.770024991079929],[90.779,-8.135],[94.725,-10.345],[123.068,-12.779],[129.87,-12.38],[130.843,-12.468],[131.681,-11.67],[131.725,-10.733],[132.752,-10.239],[138.548,-10.534],[142.133,-9.851],[144.9,-11.017],[147.262,-11.67]]]}},{"type":"Feature","properties":{"name":"E2A"},"geometry":{"type":"MultiLineString","coordinates":[[[121.801,24.864],[122.878,25.926],[129.446,28.381]]]}},{"type":"Feature","properties":{"name":"Tanjung Pandan-Sungai Kakap"},"geometry":{"type":"MultiLineString","coordinates":[[[109.182,-0.061],[108.827,-0.061],[108.678,-0.18],[107.959,-1.228],[107.566,-2.149],[107.53,-2.495],[107.663,-2.767]]]}},{"type":"Feature","properties":{"name":"Groote Eylandt"},"geometry":{"type":"MultiLineString","coordinates":[[[135.734,-14.278],[136.425,-13.865]]]}},{"type":"Feature","properties":{"name":"Padang-Tua Pejat"},"geometry":{"type":"MultiLineString","coordinates":[[[100.362,-0.944],[99.589,-2.028]]]}},{"type":"Feature","properties":{"name":"Thailand Domestic Submarine Cable Network (TDSCN)"},"geometry":{"type":"MultiLineString","coordinates":[[[100.925,13.172],[99.954,13.094],[100.186,12.991],[99.948,11.315],[99.533,10.608],[99.178,10.494],[99.533,10.412],[100.03,9.527],[100.239,9.473],[100.68,7.467],[100.595,7.199]]]}},{"type":"Feature","properties":{"name":"CAT Submarine Network (CSN)"},"geometry":{"type":"MultiLineString","coordinates":[[[100.931,13.174],[100.81,12.833],[100.659,12.214],[100.58,11.276],[101.588,8.749],[101.24,7.414],[100.595,7.199]]]}},{"type":"Feature","properties":{"name":"ORCA"},"geometry":{"type":"MultiLineString","coordinates":[[[149.39996839960057,30.5144959597591],[137.25,26.361],[132.75,24.328],[128.7,23.917],[125.835,23.795],[125.084,23.798],[123.075,24.007],[121.801,24.864]]]}},{"type":"Feature","properties":{"name":"Okinawa-Miyakojima-Ishigaki"},"geometry":{"type":"MultiLineString","coordinates":[[[124.245,24.388],[124.65,24.328],[125.1,24.417],[125.387,24.752],[126.0,24.916],[127.237,25.653],[127.729,26.135]]]}},{"type":"Feature","properties":{"name":"TalayLink"},"geometry":{"type":"MultiLineString","coordinates":[[[100.066,6.614],[96.092,5.726],[95.5,5.708],[94.391,4.305],[94.499,3.368],[99.975,-4.152],[101.905,-5.682],[102.591,-7.138],[105.414,-10.566],[105.948,-15.265]],[[105.658,-10.432],[105.414,-10.566]]]}},{"type":"Feature","properties":{"name":"Bosun"},"geometry":{"type":"MultiLineString","coordinates":[[[105.674,-10.432],[107.0,-10.473],[115.0,-11.111],[121.0,-11.111],[126.45,-11.332],[127.35,-11.332],[129.037,-11.614],[129.206,-11.669],[129.938,-11.889],[130.5,-11.999],[130.843,-12.467]]]}},{"type":"Feature","properties":{"name":"Okinawa Remote Islands"},"geometry":{"type":"MultiLineString","coordinates":[[[122.991,24.457],[123.337,24.271],[123.778,24.06]],[[122.991,24.457],[123.75,24.737],[124.7,24.669],[125.269,25.552],[126.331,25.853],[127.237,25.957],[127.688,26.115]],[[126.775,26.353],[126.787,26.462],[127.229,26.587]],[[127.292,26.231],[127.364,26.197]],[[127.229,26.587],[127.744,26.402]]]}},{"type":"Feature","properties":{"name":"Minamidaito Island"},"geometry":{"type":"MultiLineString","coordinates":[[[127.688,26.115],[128.025,26.006],[130.275,25.704],[131.243,25.843]]]}},{"type":"Feature","properties":{"name":"Kitadaito Island"},"geometry":{"type":"MultiLineString","coordinates":[[[127.729,26.135],[128.025,26.058],[130.275,25.856],[131.305,25.946]]]}},{"type":"Feature","properties":{"name":"Daito Loop"},"geometry":{"type":"MultiLineString","coordinates":[[[131.243,25.843],[131.305,25.946]]]}},{"type":"Feature","properties":{"name":"Asia Connect Cable-1 (ACC-1)"},"geometry":{"type":"MultiLineString","coordinates":[[[128.25,5.062],[126.337,5.958],[125.613,7.08]],[[107.775,-3.779],[107.775,-4.601],[107.325,-5.274],[106.828,-6.172]],[[117.38,-5.946],[118.8,-5.274],[119.412,-5.152]],[[123.75,-6.915],[125.325,-7.956],[125.581,-8.571]],[[126.9,2.068],[126.0,2.143],[124.875,1.806],[124.84,1.491]],[[104.335,1.091],[104.11,1.091],[104.017,1.067]],[[127.8,-4.676],[123.75,-6.915],[120.15,-6.915],[117.38,-5.946],[116.583,-5.525],[114.47,-5.722],[112.05,-4.826],[109.35,-3.479],[107.775,-3.779],[106.987,-3.03],[106.875,-2.131],[106.425,-0.331],[105.3,0.794],[104.85,0.906],[104.625,1.075],[104.335,1.091],[103.853,1.294]],[[145.34997126865645,13.601498202276586],[144.9,13.383],[144.777,13.49],[144.0,12.835],[137.25,9.968],[133.2,8.191],[128.25,5.062],[126.9,2.068],[126.45,0.119],[126.45,-1.231],[126.574,-1.752],[127.237,-2.581],[127.462,-3.255],[127.8,-4.676],[127.8,-6.468],[127.462,-8.253],[127.8,-9.586],[128.925,-10.62],[129.938,-12.109],[130.5,-12.219],[130.843,-12.467]]]}},{"type":"Feature","properties":{"name":"Barat Timur Indonesia-2 (BTI-2)"},"geometry":{"type":"MultiLineString","coordinates":[[[107.929,0.125],[108.794,0.063],[109.336,-0.027]],[[108.026,-5.557],[107.57,-5.716],[106.969,-5.791],[106.791,-6.109]],[[115.714,-6.112],[115.634,-6.971],[115.109,-7.786],[115.076,-8.116]],[[110.272,-6.049],[110.514,-6.689],[110.425,-6.971]],[[114.604,-3.328],[114.413,-3.74],[114.31,-4.425],[114.132,-4.839],[113.972,-6.049]],[[119.648,-5.679],[119.278,-5.946],[119.012,-6.691]],[[122.513,-3.998],[123.254,-3.577],[124.152,-3.586]],[[123.937,-1.189],[123.616,-0.888],[123.124,-1.017],[122.793,-0.939]],[[104.017,1.067],[104.237,0.719],[107.929,0.125],[108.519,-3.308],[107.921,-3.928],[107.875,-4.421],[108.029,-5.58],[108.987,-6.201],[111.395,-5.881],[112.471,-6.11],[114.554,-6.017],[117.286,-6.241],[119.138,-6.723],[120.14,-6.657],[123.706,-6.657],[124.246,-5.02],[124.195,-4.067],[123.937,-1.189],[125.001,0.147],[125.149,0.786],[125.122,1.024],[124.84,1.491]]]}},{"type":"Feature","properties":{"name":"Bangladesh Private Cable System (BPCS)"},"geometry":{"type":"MultiLineString","coordinates":[[[96.442,14.833],[95.125,14.97],[94.0,15.621],[93.375,16.75],[92.925,17.824],[92.138,19.953],[91.995,21.429]]]}},{"type":"Feature","properties":{"name":"Vietnam-Singapore Cable System (VTS)"},"geometry":{"type":"MultiLineString","coordinates":[[[105.75,4.726],[105.046,5.888],[103.063,7.117],[101.7,7.131],[100.595,7.199]],[[104.288,1.918],[104.114,1.926]],[[104.004,1.373],[104.204,1.349],[104.232,1.468],[104.288,1.918],[104.569,2.817],[105.75,4.726],[107.55,7.299],[107.775,9.524],[107.079,10.342]]]}},{"type":"Feature","properties":{"name":"Nongsa-Changi"},"geometry":{"type":"MultiLineString","coordinates":[[[104.004,1.373],[104.094,1.277],[104.103,1.197]]]}},{"type":"Feature","properties":{"name":"INSICA"},"geometry":{"type":"MultiLineString","coordinates":[[[103.646,1.339],[103.725,1.225],[103.95,1.169],[104.133,1.173]]]}},{"type":"Feature","properties":{"name":"Proa"},"geometry":{"type":"MultiLineString","coordinates":[[[138.18030650463632,31.372163079357342],[141.78,21.728],[144.03,17.061],[144.705,15.115],[144.818,14.026],[144.817,13.544]],[[144.705,15.115],[145.493,15.061]]]}},{"type":"Feature","properties":{"name":"Rompin-Tioman Island"},"geometry":{"type":"MultiLineString","coordinates":[[[103.491,2.8],[104.157,2.816]]]}},{"type":"Feature","properties":{"name":"Besut-Perhentian Islands"},"geometry":{"type":"MultiLineString","coordinates":[[[102.572,5.792],[102.723,5.907],[102.755,5.903]]]}},{"type":"Feature","properties":{"name":"Lumut-Pangkor Island"},"geometry":{"type":"MultiLineString","coordinates":[[[100.58,4.193],[100.629,4.229]]]}},{"type":"Feature","properties":{"name":"Ogasawara Cable Network"},"geometry":{"type":"MultiLineString","coordinates":[[[142.031,27.048],[142.031,26.797],[142.16,26.651]],[[141.2999741371166,28.68871408880043],[142.031,27.048],[142.204,27.066]],[[142.16,26.651],[142.144,26.797],[142.144,26.998],[142.204,27.066]]]}},{"type":"Feature","properties":{"name":"Bulikula"},"geometry":{"type":"MultiLineString","coordinates":[[[144.695,13.465],[146.25,11.736]]]}},{"type":"Feature","properties":{"name":"Halaihai"},"geometry":{"type":"MultiLineString","coordinates":[[[146.27300728259013,12.937829392787588],[144.81,13.549]]]}},{"type":"Feature","properties":{"name":"Barat Timur Indonesia-1 (BTI-1)"},"geometry":{"type":"MultiLineString","coordinates":[[[114.575,-5.386],[113.345,-5.946],[112.95,-6.393],[112.837,-6.617],[112.652,-7.165]],[[117.033,-4.18],[117.45,-4.265],[118.8,-4.826],[119.412,-5.152]],[[118.077,-1.515],[117.852,-1.628],[117.081,-1.459],[116.831,-1.265]],[[107.121,-5.981],[107.887,-5.274],[108.9,-5.125],[112.05,-5.274],[114.575,-5.386],[117.033,-4.18],[117.825,-2.73],[118.077,-1.515],[118.991,-0.811],[119.7,0.569],[119.925,1.019],[120.6,1.468],[121.5,1.731],[124.2,1.806],[124.84,1.491]],[[104.103,1.197],[104.288,1.216],[104.625,1.272],[104.85,1.3],[105.3,0.681],[106.312,-0.331],[106.766,-2.131],[106.959,-3.03],[106.875,-4.601],[106.819,-5.274],[107.121,-5.981]]]}},{"type":"Feature","properties":{"name":"Patara-2"},"geometry":{"type":"MultiLineString","coordinates":[[[134.55,-0.106],[134.437,-0.444],[134.325,-0.669],[134.062,-0.861]],[[130.858,-0.383],[131.047,-0.5],[131.276,-0.474],[131.532,-0.225],[132.3,0.006],[134.55,-0.106],[135.45,-0.5],[135.639,-0.73]]]}},{"type":"Feature","properties":{"name":"TKO Connect"},"geometry":{"type":"MultiLineString","coordinates":[[[114.259,22.318],[114.258,22.296],[114.239,22.269]],[[114.259,22.318],[114.244,22.296],[114.239,22.269]]]}},{"type":"Feature","properties":{"name":"JAVALI"},"geometry":{"type":"MultiLineString","coordinates":[[[114.097,-8.615],[114.412,-8.836],[114.975,-8.836],[115.16,-8.784]]]}},{"type":"Feature","properties":{"name":"Jalapati"},"geometry":{"type":"MultiLineString","coordinates":[[[114.31,-8.448],[114.471,-8.373],[114.527,-8.295]]]}},{"type":"Feature","properties":{"name":"YUI"},"geometry":{"type":"MultiLineString","coordinates":[[[125.3,24.795],[125.437,25.179],[126.337,26.26],[126.747,26.349]],[[124.245,24.388],[125.1,24.007],[125.775,24.02],[127.687,25.552],[127.8,25.856],[127.681,26.212]]]}},{"type":"Feature","properties":{"name":"TPU"},"geometry":{"type":"MultiLineString","coordinates":[[[122.873,20.79],[121.748,19.346],[121.078,18.602]],[[145.37300792015816,13.758776740709814],[144.923,13.54],[144.81,13.549]],[[120.882,22.346],[122.873,20.79],[131.423,18.352],[138.623,16.635],[144.473,14.686],[145.206,14.577]]]}},{"type":"Feature","properties":{"name":"Sihanoukville-Hong Kong (SHV-HK)"},"geometry":{"type":"MultiLineString","coordinates":[[[103.507,10.63],[103.838,9.524],[104.4,8.191],[105.3,7.968],[108.0,8.747],[109.125,9.968],[110.025,12.615],[112.725,18.252],[113.175,20.796],[114.259,22.318]]]}},{"type":"Feature","properties":{"name":"Submarine Cable in the Philippines (SCiP)"},"geometry":{"type":"MultiLineString","coordinates":[[[123.988,10.406],[124.055,10.59],[124.247,10.932],[124.144,11.295],[124.017,11.246],[123.933,11.427],[122.962,11.956],[122.4,12.176],[122.175,12.066],[122.033,11.868],[121.837,12.176],[121.725,12.396],[121.528,12.586],[121.556,12.835],[121.465,13.046],[121.625,13.273],[121.479,13.621],[121.066,13.762]],[[124.632,8.454],[124.594,8.636],[123.75,9.025],[123.525,9.08],[123.281,9.296],[123.525,9.413],[123.694,9.802],[123.806,10.079],[123.839,10.252]],[[124.842,10.179],[124.819,9.968],[125.156,9.746],[125.437,9.302],[125.541,8.948]],[[124.613,11.007],[124.425,10.798],[124.312,10.743],[124.2,10.521],[124.144,10.411],[123.988,10.406]],[[124.085,12.585],[124.228,12.506],[124.282,12.501]],[[120.487,11.736],[120.375,11.791],[120.201,12.005]],[[121.05,12.363],[120.712,12.176],[120.487,11.736],[120.037,11.074],[119.5,10.82]]]}},{"type":"Feature","properties":{"name":"Taiwan Penghu Kinmen Matsu No.2 (TPKM2)"},"geometry":{"type":"MultiLineString","coordinates":[[[121.463,25.182],[121.275,25.742],[120.712,26.395],[120.493,26.367]],[[120.645,24.432],[120.262,24.362],[118.8,24.362],[118.439,24.437]],[[120.17,23.363],[119.925,23.436],[119.656,23.574]]]}},{"type":"Feature","properties":{"name":"Haikou-Beihai Cable"},"geometry":{"type":"MultiLineString","coordinates":[[[109.105,21.485],[109.237,20.621],[109.678,19.905]]]}},{"type":"Feature","properties":{"name":"Timor-Leste South Submarine Cable (TLSSC)"},"geometry":{"type":"MultiLineString","coordinates":[[[125.579,-8.559],[125.775,-8.345],[126.45,-8.29],[126.9,-8.141],[127.35,-8.253],[127.575,-9.586],[127.237,-10.473],[126.45,-11.552]]]}},{"type":"Feature","properties":{"name":"Asia Link Cable (ALC)"},"geometry":{"type":"MultiLineString","coordinates":[[[114.203,22.222],[114.412,20.796],[114.75,19.104],[114.975,18.265],[114.75,17.122],[114.075,14.801],[113.4,12.615],[112.387,9.968],[111.15,7.745],[108.0,5.286],[107.1,4.726],[105.75,3.94],[104.906,2.803],[104.661,1.961],[104.471,1.468],[104.288,1.3],[104.192,1.262],[103.987,1.389]],[[104.114,1.926],[104.329,2.028],[104.661,1.961]],[[114.075,14.801],[109.8,15.994],[108.9,16.102],[108.192,16.043]],[[111.15,7.745],[112.95,5.883],[114.3,5.174],[114.886,4.927]],[[114.75,19.104],[113.85,18.679],[111.1,18.506],[110.049,18.39]],[[114.75,17.122],[117.0,16.857],[119.925,16.75],[120.356,16.514]],[[114.975,18.265],[117.0,18.038],[119.925,16.857],[120.355,16.831]]]}},{"type":"Feature","properties":{"name":"Taiwan Penghu Kinmen Matsu No.3 (TPKM3)"},"geometry":{"type":"MultiLineString","coordinates":[[[119.934,26.155],[119.989,26.225],[120.15,26.243],[120.375,26.294],[120.493,26.367]],[[119.934,26.155],[119.869,26.041],[119.939,25.973]],[[119.934,26.155],[120.262,25.755],[120.937,25.247],[121.311,24.989]],[[118.316,24.413],[118.462,24.311],[119.25,23.797],[119.512,23.602],[119.576,23.574],[119.656,23.574],[119.7,23.436],[120.037,23.281],[120.181,22.997]]]}},{"type":"Feature","properties":{"name":"Philippine Domestic Submarine Cable Network (PDSCN)"},"geometry":{"type":"MultiLineString","coordinates":[[[123.839,10.252],[123.862,10.079],[123.806,9.802],[123.878,9.675]],[[122.063,6.908],[121.95,6.889],[121.725,7.001],[121.725,7.448],[121.95,7.893],[122.412,8.21],[122.678,8.074]],[[123.988,10.406],[124.2,10.3],[124.65,10.189],[124.842,10.179]],[[123.335,8.564],[123.187,8.636],[122.737,8.413],[122.678,8.074]],[[123.335,8.564],[123.412,8.747],[123.637,8.858],[124.481,8.636],[124.632,8.454]],[[123.914,9.623],[124.2,9.302],[124.65,8.636],[124.632,8.454]],[[123.862,11.941],[123.933,11.537],[124.2,11.295],[124.397,11.055]],[[124.729,9.173],[124.762,9.08],[124.816,8.983]],[[126.053,9.855],[125.887,9.802],[125.831,9.691],[125.87,9.498]],[[123.901,12.106],[123.862,12.396],[123.896,12.684]],[[124.6,12.07],[124.425,12.066],[124.087,12.176],[123.901,12.106]],[[124.397,11.055],[124.303,10.932],[124.2,10.743],[124.087,10.521],[123.988,10.406]],[[125.487,9.783],[125.1,9.857],[124.875,9.968],[124.842,10.179]],[[123.167,9.146],[123.187,8.969],[123.244,8.735],[123.335,8.564]],[[122.75,11.583],[122.962,11.625],[123.3,11.625],[123.862,11.941]],[[123.413,10.484],[123.525,10.448],[123.635,10.376]],[[122.562,10.72],[122.737,10.657],[122.969,10.641]],[[121.945,11.949],[121.951,11.931]],[[122.082,12.603],[122.175,12.725],[122.344,12.652],[122.344,12.487],[122.4,12.066],[122.75,11.583]],[[122.082,12.603],[122.119,12.725],[122.794,13.273],[122.951,13.547]],[[121.612,13.935],[121.781,13.492],[121.885,13.429],[121.95,13.054],[122.062,12.725],[122.082,12.603]],[[121.078,13.636],[121.331,13.492],[121.5,13.273],[121.465,13.046],[121.612,12.835],[121.703,12.634],[121.889,12.194],[121.945,11.949]]]}},{"type":"Feature","properties":{"name":"SEA-H2X"},"geometry":{"type":"MultiLineString","coordinates":[[[113.85,17.109],[117.0,16.75],[119.925,16.642],[120.321,16.616]],[[114.075,18.252],[111.15,18.287],[110.049,18.39]],[[105.75,4.501],[104.836,5.398],[103.049,7.005],[101.7,7.076],[100.595,7.199]],[[103.646,1.339],[103.838,1.169],[104.14,1.158],[104.26,1.468],[104.625,2.817],[105.75,4.501],[107.1,5.174],[108.0,5.846],[110.025,7.745],[111.262,9.968],[112.275,12.615],[113.85,17.109],[114.075,18.252],[113.962,20.796],[114.259,22.318]]]}},{"type":"Feature","properties":{"name":"SeaMeWe-6"},"geometry":{"type":"MultiLineString","coordinates":[[[85.5,1.019],[83.7,5.51]],[[90.0,1.918],[90.9,5.062],[91.35,9.524],[92.7,14.801],[92.7,17.824],[92.025,19.953],[91.995,21.429]],[[101.25,2.031],[101.475,2.593],[101.444,2.751]],[[81.00001685476798,2.592701464601932],[85.5,1.019],[90.0,1.918],[92.7,4.389],[94.275,5.386],[95.421,6.139],[97.425,5.51],[97.875,5.286],[98.663,4.614],[99.9,3.267],[101.25,2.031],[102.15,1.525],[102.683,1.418],[103.341,1.075],[103.5,1.145],[103.646,1.339]]]}},{"type":"Feature","properties":{"name":"Biznet Nusantara Cable System-1 (BNCS-1)"},"geometry":{"type":"MultiLineString","coordinates":[[[105.884,-6.074],[105.722,-5.974],[105.585,-5.769]],[[105.164,-2.065],[105.052,-2.226],[104.875,-2.295]]]}},{"type":"Feature","properties":{"name":"Topaz"},"geometry":{"type":"MultiLineString","coordinates":[[[135.05290856319252,28.932934895626012],[128.075,25.418],[127.209,24.989],[125.826,23.912],[125.102,23.922],[123.62,24.256],[122.836,24.752],[122.166,24.857],[121.801,24.864]]]}},{"type":"Feature","properties":{"name":"Hawaiki Nui 1"},"geometry":{"type":"MultiLineString","coordinates":[[[129.6,-9.586],[128.7,-8.92],[128.304,-7.802],[127.35,-7.386],[126.0,-7.386],[125.55,-7.993],[125.579,-8.559]],[[104.15,1.185],[104.017,1.067]],[[109.35,-3.928],[108.225,-4.601],[107.775,-5.274],[106.828,-6.172]],[[131.4,-9.142],[129.6,-9.586],[129.15,-10.62],[129.037,-11.834],[129.875,-12.195],[130.5,-12.329],[130.843,-12.468]],[[147.2624699138245,-11.062032109909483],[144.9,-10.473],[142.2,-9.586],[138.6,-9.956],[134.55,-9.586],[131.4,-9.142]],[[129.037,-11.834],[127.35,-11.773],[126.45,-11.773],[121.0,-11.552],[118.687,-10.804],[116.55,-9.586],[115.875,-9.142],[115.819,-8.865],[115.875,-8.401],[115.762,-8.178],[115.2,-7.51],[114.47,-6.617],[112.05,-5.498],[109.35,-3.928],[108.9,-3.03],[106.087,-0.331],[104.85,0.625],[104.4,0.906],[104.288,1.019],[104.178,1.185],[103.853,1.294]]]}},{"type":"Feature","properties":{"name":"Apricot"},"geometry":{"type":"MultiLineString","coordinates":[[[127.35,19.246],[126.0,21.321],[124.149,23.758],[122.85,24.635],[121.801,24.864]],[[144.658,13.385],[144.0,13.601],[143.1,13.929],[138.6,15.67],[131.4,17.395],[126.45,18.252],[127.35,19.246],[130.95,20.796],[138.6,23.711],[139.725,24.941],[140.85,30.901]]]}},{"type":"Feature","properties":{"name":"Apricot"},"geometry":{"type":"MultiLineString","coordinates":[[[104.175,1.018],[104.119,1.018],[104.017,1.067]],[[109.125,-3.03],[107.887,-4.601],[107.437,-5.274],[107.121,-5.981]],[[126.573,5.405],[126.337,5.659],[126.112,5.958],[125.613,7.08]],[[125.55,16.246],[123.525,15.597],[121.95,15.67],[121.56,15.762]],[[103.646,1.339],[103.838,1.183],[104.024,1.202],[104.15,1.185],[104.175,1.018],[104.288,0.962],[104.4,0.85],[104.85,0.681],[106.2,-0.331],[109.125,-3.03],[109.8,-3.479],[112.05,-4.601],[114.61,-5.274],[116.808,-4.18],[117.712,-2.73],[117.964,-1.515],[118.766,-0.811],[119.475,0.569],[119.7,1.019],[120.6,1.581],[124.2,3.417],[126.573,5.405],[128.25,7.448],[127.35,11.882],[125.55,16.246],[126.45,18.252]]]}},{"type":"Feature","properties":{"name":"India Asia Xpress (IAX)"},"geometry":{"type":"MultiLineString","coordinates":[[[87.507,21.614],[88.646,2.547]]]}},{"type":"Feature","properties":{"name":"India Asia Xpress (IAX)"},"geometry":{"type":"MultiLineString","coordinates":[[[85.5,1.918],[83.925,5.51]],[[101.25,2.143],[101.419,2.593],[101.444,2.751]],[[98.1,5.286],[99.0,5.958],[100.066,6.614]],[[81.00001685476798,2.817450442654169],[85.5,1.918],[90.0,2.817],[92.7,4.614],[94.275,5.61],[95.406,6.218],[97.425,5.622],[98.1,5.286],[98.888,4.614],[100.013,3.267],[101.25,2.143],[102.15,1.806],[102.683,1.558],[103.341,1.384],[103.5,1.328],[103.646,1.339]]]}},{"type":"Feature","properties":{"name":"Sape-Labuan Bajo-Ende-Kupang"},"geometry":{"type":"MultiLineString","coordinates":[[[118.976,-8.506],[119.25,-8.197],[119.587,-8.141],[119.869,-8.197],[119.908,-8.476]],[[121.643,-8.846],[121.725,-9.068],[122.85,-9.808],[123.3,-9.901],[123.583,-10.183]]]}},{"type":"Feature","properties":{"name":"Kupang-Alor Cable Systems"},"geometry":{"type":"MultiLineString","coordinates":[[[123.583,-10.183],[123.469,-9.697],[123.525,-9.142],[124.087,-8.92],[124.2,-8.698],[124.404,-8.321]]]}},{"type":"Feature","properties":{"name":"Denpasar-Waingapu Cable Systems"},"geometry":{"type":"MultiLineString","coordinates":[[[118.082,-8.841],[118.012,-9.142],[117.675,-9.364],[117.225,-9.364],[116.55,-9.364],[116.1,-9.253],[115.65,-9.142],[115.425,-8.92],[115.261,-8.657]],[[115.65,-9.142],[115.706,-8.865],[115.875,-8.679],[116.073,-8.561]],[[118.082,-8.841],[118.237,-9.142],[118.687,-9.253],[119.25,-9.179],[120.037,-9.179],[120.262,-9.364],[120.253,-9.646]]]}},{"type":"Feature","properties":{"name":"Bifrost"},"geometry":{"type":"MultiLineString","coordinates":[[[109.35,-3.03],[108.0,-4.601],[107.55,-5.274],[106.828,-6.172]],[[126.45,5.659],[126.225,5.958],[125.613,7.08]],[[124.2,3.866],[124.65,1.806],[124.84,1.491]],[[145.79997094927663,16.24638821747719],[144.675,14.366],[144.562,13.929],[144.777,13.49]],[[144.562,13.929],[144.0,13.273],[137.25,11.736],[133.2,9.968],[129.6,7.893],[126.45,5.659],[124.2,3.866],[120.6,2.368],[119.25,1.019],[119.025,0.569],[118.316,-0.811],[117.852,-1.29],[117.739,-1.515],[117.487,-2.73],[116.583,-4.18],[114.68,-5.05],[112.05,-4.377],[110.025,-3.479],[109.35,-3.03],[106.312,-0.331],[105.637,0.119],[104.85,0.569],[104.175,0.685],[103.894,0.794],[103.894,1.019],[103.646,1.339]]]}},{"type":"Feature","properties":{"name":"Echo"},"geometry":{"type":"MultiLineString","coordinates":[[[145.79997094927663,15.813887260619625],[143.887,13.966],[144.225,13.711],[144.695,13.465]]]}},{"type":"Feature","properties":{"name":"Echo"},"geometry":{"type":"MultiLineString","coordinates":[[[144.658,13.385],[144.0,13.383],[143.55,13.419]],[[133.65,7.745],[134.1,7.522],[134.561,7.532]],[[109.575,-3.03],[108.112,-4.601],[107.662,-5.274],[107.121,-5.981]],[[143.887,13.966],[143.55,13.419],[137.25,9.524],[133.65,7.745],[133.2,7.299],[130.5,3.866],[129.6,1.618],[128.7,-1.981],[128.025,-2.88],[127.35,-4.676],[123.75,-6.468],[120.15,-6.468],[116.583,-4.853],[114.75,-4.826],[112.05,-4.153],[110.25,-3.479],[109.575,-3.03],[106.537,-0.331],[105.3,0.906],[104.85,1.187],[104.625,1.251],[104.288,1.3],[104.19,1.31],[103.987,1.389]]]}},{"type":"Feature","properties":{"name":"Jakarta-Bangka-Batam-Singapore (B2JS)"},"geometry":{"type":"MultiLineString","coordinates":[[[106.828,-6.172],[106.425,-5.274],[106.65,-4.601],[106.762,-3.479],[106.547,-3.08],[106.312,-2.581],[105.862,-1.906],[105.583,-1.554],[105.525,-1.231],[105.187,0.119],[104.85,0.346],[104.175,0.456],[103.725,0.794],[103.725,1.019],[103.878,1.135],[104.017,1.067],[103.922,1.185],[103.946,1.327]]]}},{"type":"Feature","properties":{"name":"Asia Direct Cable (ADC)"},"geometry":{"type":"MultiLineString","coordinates":[[[114.3,14.801],[117.0,13.711],[118.8,13.492],[120.15,13.492],[121.066,13.762]],[[117.0,19.317],[117.225,19.953],[117.225,20.796],[117.0,22.469],[116.678,23.355]],[[115.2,18.252],[114.525,20.796],[114.203,22.222]],[[113.175,12.615],[112.95,12.835],[111.6,13.492],[110.025,13.82],[109.22,13.783]],[[108.0,5.398],[105.3,6.405],[103.275,7.745],[100.8,9.524],[100.125,11.295],[100.238,12.176],[100.575,12.835],[100.931,13.174]],[[138.82497589102445,28.161052262220792],[137.25,26.563],[132.75,23.505],[130.95,22.677],[126.0,21.111],[122.85,20.27],[121.05,20.058],[120.15,20.058],[117.0,19.317],[115.2,18.252],[114.3,14.801],[113.175,12.615],[112.162,9.968],[110.925,7.745],[108.0,5.398],[105.75,4.389],[104.681,2.817],[104.316,1.468],[104.206,1.342],[103.92,1.228],[103.646,1.339]]]}},{"type":"Feature","properties":{"name":"Java-Kalimantan-Sulawesi (JAKASUSI)"},"geometry":{"type":"MultiLineString","coordinates":[[[112.72,-7.272],[112.781,-6.617],[112.837,-6.393],[113.962,-4.826],[114.187,-4.377],[114.667,-3.883],[114.525,-4.252],[114.75,-4.377],[116.583,-4.404],[118.8,-5.05],[119.385,-5.343]]]}},{"type":"Feature","properties":{"name":"MIST"},"geometry":{"type":"MultiLineString","coordinates":[[[101.25,2.199],[101.363,2.593],[101.444,2.751]],[[97.425,5.846],[99.0,6.405],[100.066,6.614]],[[81.00001685476798,3.042156042425856],[85.5,2.817],[90.0,3.716],[92.7,4.838],[94.275,5.833],[95.406,6.311],[97.425,5.846],[98.325,5.286],[99.113,4.614],[100.125,3.267],[101.25,2.199],[102.15,1.918],[102.683,1.614],[103.341,1.412],[103.5,1.384],[103.646,1.339]]]}},{"type":"Feature","properties":{"name":"Converge Domestic Submarine Cable Network (CDSCN)"},"geometry":{"type":"MultiLineString","coordinates":[[[123.295,9.246],[123.469,9.08],[123.75,8.914],[124.537,8.636],[124.632,8.454]],[[123.914,9.623],[124.2,9.524],[124.65,9.524],[125.1,9.413],[125.325,9.247],[125.421,8.969]],[[123.691,10.238],[123.75,10.079],[123.75,9.802],[123.878,9.675]],[[123.413,10.484],[123.525,10.411],[123.635,10.376]],[[122.589,10.787],[122.85,10.743],[122.968,10.739]],[[124.008,11.046],[124.134,10.932],[124.425,10.853],[124.613,11.007]],[[123.617,12.367],[123.525,12.506],[123.356,12.615],[123.019,12.835],[122.85,13.054],[122.85,13.273],[122.951,13.547]],[[121.528,12.586],[121.612,12.396],[121.786,12.158],[121.945,11.949],[122.062,11.956],[122.4,11.846],[122.75,11.583],[122.962,11.736],[123.3,11.736],[123.469,11.956],[123.509,12.218],[123.525,11.956],[123.82,11.537],[123.936,11.083]],[[121.449,13.81],[121.612,13.492],[121.725,13.054],[121.725,12.725],[121.528,12.586],[121.5,12.396],[121.387,12.176],[120.937,11.956],[120.375,11.956],[120.201,12.005],[120.375,11.736],[119.925,11.074],[119.5,10.82]]]}},{"type":"Feature","properties":{"name":"Oman Australia Cable (OAC)"},"geometry":{"type":"MultiLineString","coordinates":[[[89.10001111784821,-19.729525450021],[95.4,-13.99],[96.832,-12.193]]]}},{"type":"Feature","properties":{"name":"Tanjung Pandan-Sungai Kakap"},"geometry":{"type":"MultiLineString","coordinates":[[[107.663,-2.767],[107.607,-2.518],[107.648,-2.238],[108.112,-1.231],[108.9,-0.106],[109.182,-0.061]]]}},{"type":"Feature","properties":{"name":"Hainan to Hong Kong Express (H2HE)"},"geometry":{"type":"MultiLineString","coordinates":[[[110.762,20.045],[111.15,20.305],[112.837,20.796],[113.569,21.635],[113.681,21.844],[113.737,22.105]],[[113.577,22.271],[113.737,22.105],[114.075,22.105],[114.203,22.222]]]}},{"type":"Feature","properties":{"name":"Okinawa Cellular Cable"},"geometry":{"type":"MultiLineString","coordinates":[[[127.977,26.592],[127.8,26.563],[127.575,26.764],[127.687,27.165],[128.475,28.359]]]}},{"type":"Feature","properties":{"name":"Miyazaki-Okinawa Cable (MOC)"},"geometry":{"type":"MultiLineString","coordinates":[[[131.39998115096031,29.540507745394493],[128.7,26.563],[128.025,26.159],[127.681,26.212]]]}},{"type":"Feature","properties":{"name":"Japan Information Highway (JIH)"},"geometry":{"type":"MultiLineString","coordinates":[[[127.681,26.212],[128.025,26.111],[128.7,26.361],[131.4,29.345]]]}},{"type":"Feature","properties":{"name":"Batam Sarawak Internet Cable System (BaSICS)"},"geometry":{"type":"MultiLineString","coordinates":[[[110.294,1.675],[110.025,1.918],[109.575,2.368],[106.2,2.143],[104.738,1.468],[104.625,1.37],[104.288,1.174],[104.133,1.173]]]}},{"type":"Feature","properties":{"name":"Sorsogon-Samar Submarine Fiber Optical Interconnection Project (SSSFOIP)"},"geometry":{"type":"MultiLineString","coordinates":[[[124.107,12.645],[124.228,12.615],[124.282,12.501]]]}},{"type":"Feature","properties":{"name":"PASULI"},"geometry":{"type":"MultiLineString","coordinates":[[[104.875,-2.295],[104.962,-2.187],[105.164,-2.065]]]}},{"type":"Feature","properties":{"name":"SJJK"},"geometry":{"type":"MultiLineString","coordinates":[[[112.598,-6.953],[112.5,-6.641],[112.5,-6.393],[112.894,-5.834],[112.837,-5.778],[112.586,-5.794]],[[114.667,-3.883],[114.075,-4.377],[113.85,-4.826],[112.95,-5.722],[112.837,-5.722],[112.586,-5.794]],[[105.585,-5.769],[105.694,-6.002],[105.884,-6.074]]]}},{"type":"Feature","properties":{"name":"Link 5 Phase-2"},"geometry":{"type":"MultiLineString","coordinates":[[[103.488,-0.823],[103.95,-0.781],[104.4,-0.781],[105.75,-1.119],[106.087,-1.344],[106.2,-1.681],[106.133,-1.851]]]}},{"type":"Feature","properties":{"name":"Link 4 Phase-2"},"geometry":{"type":"MultiLineString","coordinates":[[[106.133,-1.851],[106.312,-1.794],[106.71,-2.131],[107.1,-3.03],[107.325,-3.255],[107.55,-3.255],[107.696,-3.196]]]}},{"type":"Feature","properties":{"name":"Link 3 Phase-2"},"geometry":{"type":"MultiLineString","coordinates":[[[106.987,-5.274],[107.121,-5.981]],[[107.696,-3.196],[107.662,-3.479],[107.437,-4.601],[106.987,-5.274],[106.833,-6.129]]]}},{"type":"Feature","properties":{"name":"Link 2 Phase-2"},"geometry":{"type":"MultiLineString","coordinates":[[[113.457,-8.374],[113.625,-8.624],[114.3,-8.957],[114.975,-8.957],[115.16,-8.784]]]}},{"type":"Feature","properties":{"name":"Link 1 Phase-2"},"geometry":{"type":"MultiLineString","coordinates":[[[115.26,-8.695],[115.537,-8.624],[115.875,-8.624],[116.047,-8.485]]]}},{"type":"Feature","properties":{"name":"Link 3 Phase-1"},"geometry":{"type":"MultiLineString","coordinates":[[[116.047,-8.485],[116.044,-8.401],[116.1,-8.178],[116.55,-7.956],[117.45,-7.956],[117.862,-8.108]]]}},{"type":"Feature","properties":{"name":"Link 2 Phase-1"},"geometry":{"type":"MultiLineString","coordinates":[[[117.535,0.325],[117.9,0.231],[119.25,-0.444],[119.666,-0.712]]]}},{"type":"Feature","properties":{"name":"Link 1 Phase-1"},"geometry":{"type":"MultiLineString","coordinates":[[[117.862,-8.108],[118.35,-7.733],[119.475,-6.617],[119.587,-6.169],[119.809,-5.669]]]}},{"type":"Feature","properties":{"name":"UMO"},"geometry":{"type":"MultiLineString","coordinates":[[[96.248,16.759],[96.442,14.833],[96.75,11.295],[97.425,7.354],[99.675,5.286],[100.463,4.614],[100.8,3.267],[101.25,2.817],[102.15,2.199],[102.683,1.783],[103.341,1.384],[103.5,1.285],[103.647,1.338]]]}},{"type":"Feature","properties":{"name":"National Digital Transmission Network (NDTN)"},"geometry":{"type":"MultiLineString","coordinates":[[[122.434,10.426],[122.562,10.72]],[[121.05,12.363],[121.05,11.736],[121.275,11.295],[121.5,10.411],[121.95,10.189],[122.434,10.426],[122.287,9.968],[122.287,9.524],[122.85,8.858],[123.187,8.858],[123.3,9.08],[123.281,9.296]],[[121.612,13.935],[121.725,13.492],[121.837,13.054],[121.837,12.725],[121.725,12.396],[121.387,12.231],[121.05,12.363]]]}},{"type":"Feature","properties":{"name":"Chennai-Andaman & Nicobar Islands Cable (CANI)"},"geometry":{"type":"MultiLineString","coordinates":[[[92.726,11.623],[92.813,11.295],[92.25,11.074],[89.1,11.736],[83.7,13.054]],[[92.914,12.507],[92.924,12.456],[92.935,12.396],[92.988,12.176],[92.988,11.976],[92.871,11.736],[92.726,11.623],[92.869,11.295],[92.756,10.853],[92.597,10.709],[92.7,10.411],[92.925,9.524],[92.816,9.178],[93.038,9.08],[93.319,8.302],[93.481,8.172],[93.406,8.079],[93.46,7.968],[93.544,7.856],[93.938,7.299],[93.927,7.031]]]}},{"type":"Feature","properties":{"name":"Southeast Asia-Japan Cable 2 (SJC2)"},"geometry":{"type":"MultiLineString","coordinates":[[[126.225,25.552],[123.75,25.653],[122.85,25.755],[121.95,25.653],[121.488,25.182]],[[100.595,7.199],[101.7,7.41],[103.049,7.563],[105.3,6.182],[107.1,4.838]],[[112.95,12.615],[111.6,13.273],[110.025,13.711],[109.22,13.783]],[[120.15,20.27],[120.487,21.635],[120.662,22.249]],[[114.75,18.252],[114.3,20.796],[114.203,22.222]],[[103.987,1.389],[104.192,1.276],[104.288,1.328],[104.457,1.468],[104.85,2.817],[105.75,4.053],[107.1,4.838],[108.0,5.51],[110.7,7.745],[111.937,9.968],[112.95,12.615],[114.525,17.109],[114.75,18.252],[117.0,19.529],[120.15,20.27],[121.05,20.375],[122.85,20.901],[124.875,22.053],[125.775,24.123],[126.225,25.552],[126.675,26.159],[128.25,28.359]]]}},{"type":"Feature","properties":{"name":"Java Bali Cable System (JBCS)"},"geometry":{"type":"MultiLineString","coordinates":[[[114.31,-8.448],[114.471,-8.345],[114.527,-8.295]]]}},{"type":"Feature","properties":{"name":"Jakarta Surabaya Cable System (JAYABAYA)"},"geometry":{"type":"MultiLineString","coordinates":[[[107.121,-5.981],[107.325,-5.834],[107.55,-5.834],[108.45,-6.169],[108.675,-6.393],[108.675,-6.561],[108.557,-6.717],[108.787,-6.617],[109.8,-6.617],[110.025,-6.731],[110.188,-7.027],[110.25,-6.731],[110.7,-6.281],[111.375,-6.169],[112.162,-6.393],[112.612,-6.617],[112.72,-7.272]]]}},{"type":"Feature","properties":{"name":"DAMAI Cable System"},"geometry":{"type":"MultiLineString","coordinates":[[[98.676,3.752],[98.888,3.828],[99.45,3.641],[99.788,3.267],[100.35,2.817],[100.313,2.452],[100.463,2.705],[100.575,2.705],[101.25,2.426],[101.758,2.143],[101.871,1.976],[101.728,1.806],[101.448,1.666]]]}},{"type":"Feature","properties":{"name":"Japan-Guam-Australia South (JGA-S)"},"geometry":{"type":"MultiLineString","coordinates":[[[144.695,13.465],[144.816,13.273],[145.35,12.835]]]}},{"type":"Feature","properties":{"name":"Japan-Guam-Australia North (JGA-N)"},"geometry":{"type":"MultiLineString","coordinates":[[[144.695,13.489],[144.35,14.043],[143.775,15.236],[143.1,16.965],[140.85,21.635],[139.275,24.941],[139.05,27.764],[139.275,30.901]]]}},{"type":"Feature","properties":{"name":"Palapa Ring East"},"geometry":{"type":"MultiLineString","coordinates":[[[134.325,-1.681],[133.875,-2.018],[133.482,-2.202]],[[135.502,-3.372],[135.562,-3.03],[135.9,-2.581],[136.125,-2.131],[136.157,-1.756],[136.35,-2.018],[136.8,-2.018],[136.969,-1.906],[137.025,-1.681],[136.8,-1.456],[136.35,-1.456],[135.9,-1.344],[135.675,-1.175],[135.619,-1.007],[135.639,-0.73],[135.45,-0.838],[135.0,-0.838],[134.325,-0.781],[134.062,-0.861],[134.212,-1.006],[134.325,-1.231],[134.325,-1.681],[134.662,-2.131],[135.112,-3.03],[135.502,-3.372]],[[139.396,-7.102],[139.05,-7.175],[138.6,-7.063],[138.262,-6.617],[138.15,-5.946],[138.121,-5.536],[137.812,-5.498],[137.25,-5.274],[137.025,-5.05],[136.89,-4.55],[136.744,-4.377],[135.787,-3.592],[135.502,-3.372]],[[124.454,-8.161],[124.65,-8.067],[125.325,-8.067],[125.662,-8.086],[126.45,-8.123],[126.9,-7.956],[127.35,-7.956],[127.691,-8.158],[127.788,-8.15],[127.912,-8.011],[128.925,-8.011],[129.6,-8.178],[130.05,-8.178],[130.837,-8.067],[131.213,-8.052],[130.837,-7.844],[130.725,-7.621],[130.837,-7.175],[131.625,-6.281],[132.3,-5.778],[132.752,-5.627],[132.694,-5.386],[132.865,-5.129],[133.202,-5.129],[134.1,-5.946],[134.269,-6.058],[134.55,-6.195],[134.775,-6.169],[135.225,-5.834],[136.012,-5.61],[136.462,-5.386],[136.687,-5.05],[136.89,-4.55]],[[120.253,-9.646],[120.6,-9.623],[121.612,-10.288],[121.88,-10.458],[122.062,-10.399],[122.85,-10.62],[123.035,-10.733],[123.075,-10.509],[123.3,-10.344],[123.583,-10.183]]]}},{"type":"Feature","properties":{"name":"Palapa Ring West"},"geometry":{"type":"MultiLineString","coordinates":[[[102.08,1.489],[101.728,1.637],[101.448,1.666]],[[102.667,0.933],[102.57,1.221],[102.08,1.489]],[[103.405,0.77],[103.275,0.962],[103.05,1.169],[102.739,1.221],[102.667,0.933]],[[104.017,1.067],[103.878,1.107],[103.5,0.962],[103.405,0.77]],[[104.635,-0.163],[104.4,-0.219],[104.119,-0.331],[103.467,-0.817]],[[108.987,0.906],[108.787,1.243],[108.45,2.967],[108.45,3.417],[108.377,3.941],[108.143,3.946],[108.0,3.841],[107.325,3.491],[106.875,3.267],[106.211,3.207],[105.975,2.593],[105.75,2.143],[104.867,1.477],[104.625,1.3],[104.288,1.117],[104.017,1.067],[104.035,0.906],[104.06,0.794],[104.175,0.342],[104.4,0.006],[104.635,-0.163]]]}},{"type":"Feature","properties":{"name":"Palapa Ring Middle"},"geometry":{"type":"MultiLineString","coordinates":[[[122.56,-5.389],[122.571,-5.44],[122.597,-5.507]],[[122.513,-3.998],[122.794,-3.985],[122.906,-4.041],[122.962,-4.097],[123.124,-4.136],[122.962,-4.377],[122.85,-4.489],[122.794,-4.658],[122.721,-4.832],[122.792,-4.826],[122.856,-4.792]],[[122.793,-0.939],[123.075,-1.119],[123.3,-1.147],[123.34,-1.301],[123.412,-1.203],[123.637,-1.231],[123.694,-1.4],[123.528,-1.6],[123.694,-1.625],[124.031,-1.85],[124.312,-2.131],[124.537,-2.131],[124.65,-2.018],[124.774,-1.827],[124.987,-2.018],[125.662,-2.356],[125.887,-2.581],[126.112,-2.581],[126.169,-2.468],[126.112,-2.3],[125.937,-2.201]],[[127.361,0.796],[127.378,0.739],[127.404,0.674],[127.462,0.681],[127.561,0.735]],[[124.84,1.491],[124.762,1.806],[125.212,2.593],[125.373,2.755],[125.212,2.817],[125.212,3.267],[125.486,3.601],[125.325,3.716],[125.437,3.94],[126.45,4.053],[126.717,4.043],[126.9,3.94],[127.125,3.716],[127.35,3.267],[127.912,2.368],[128.137,2.256],[128.401,2.366],[128.194,2.143],[128.137,1.918],[127.968,1.715]]]}},{"type":"Feature","properties":{"name":"PEACE Cable"},"geometry":{"type":"MultiLineString","coordinates":[[[81.00001685476798,2.143087178471855],[85.5,-0.781],[90.0,0.119],[92.7,3.94],[94.275,4.937],[95.453,5.91],[97.425,5.286],[97.65,5.286],[98.213,4.614],[99.788,3.267],[101.25,1.974],[102.15,1.75],[102.683,1.502],[103.341,1.159],[103.646,1.339]]]}},{"type":"Feature","properties":{"name":"JUPITER"},"geometry":{"type":"MultiLineString","coordinates":[[[140.6249746158884,30.901396088515508],[138.825,27.764],[137.25,26.159],[133.2,22.469],[127.8,17.395],[124.65,15.236],[123.525,14.257],[122.95,14.117]]]}},{"type":"Feature","properties":{"name":"PNG LNG"},"geometry":{"type":"MultiLineString","coordinates":[[[144.24,-7.414],[144.604,-7.966],[145.805,-8.831]]]}},{"type":"Feature","properties":{"name":"Kumul Domestic Submarine Cable System"},"geometry":{"type":"MultiLineString","coordinates":[[[143.658,-3.58],[144.0,-3.479],[144.45,-3.03],[144.45,-2.581]],[[142.197,-2.046],[141.879,-2.22],[141.617,-2.51],[141.3,-2.69]],[[145.34997126865645,-3.479268678970064],[144.45,-2.581],[143.438,-2.188],[142.197,-2.046]],[[143.21,-9.078],[144.0,-8.846],[144.726,-8.332],[145.575,-8.401]]]}},{"type":"Feature","properties":{"name":"Pukpuk-1 Cable System"},"geometry":{"type":"MultiLineString","coordinates":[[[140.669,-2.596],[141.025,-2.297],[141.187,-2.131],[141.379,-2.03],[142.183,-2.042]]]}},{"type":"Feature","properties":{"name":"Labuan-Brunei Submarine Cable"},"geometry":{"type":"MultiLineString","coordinates":[[[114.886,4.927],[114.975,5.12],[115.169,5.255]]]}},{"type":"Feature","properties":{"name":"East-West Submarine Cable System"},"geometry":{"type":"MultiLineString","coordinates":[[[103.851,2.296],[104.4,2.48],[105.75,2.593],[105.975,2.817],[106.211,3.207],[106.875,3.154],[107.325,3.267],[108.0,3.491],[108.29,3.667],[108.9,3.267],[109.8,2.593],[110.25,1.918],[110.354,1.52]]]}},{"type":"Feature","properties":{"name":"SMPCS Packet-1"},"geometry":{"type":"MultiLineString","coordinates":[[[126.9,1.019],[127.35,1.019],[127.462,0.906],[127.561,0.735]],[[127.35,1.019],[127.35,0.906],[127.375,0.79]],[[128.191,-3.646],[128.025,-4.041],[127.8,-4.153],[126.45,-4.153],[125.1,-3.816],[123.075,-3.816],[122.513,-3.998]],[[127.48,-0.627],[127.35,-0.781],[127.35,-1.006]],[[126.675,-1.231],[127.35,-1.006],[127.8,-1.006],[128.25,-1.231],[129.15,-1.231],[129.6,-0.781],[130.39,-0.59],[130.89,-0.59],[131.295,-0.882]],[[126.687,-2.201],[125.937,-2.201]],[[127.35,-3.255],[127.086,-3.233]],[[129.15,-3.928],[129.15,-3.704],[128.955,-3.298]],[[129.872,-4.52],[129.825,-4.153]],[[124.84,1.491],[125.1,1.243],[126.0,1.019],[126.9,1.019],[126.9,0.569],[126.9,0.119],[126.675,-1.231],[126.687,-2.201],[127.125,-2.581],[127.35,-3.255],[127.575,-3.704],[127.8,-3.928],[128.025,-3.928],[128.191,-3.646],[128.475,-3.816],[129.15,-3.928],[129.825,-4.153],[130.5,-4.153],[131.4,-3.928],[132.3,-3.479],[132.75,-3.367],[133.009,-3.111]]]}},{"type":"Feature","properties":{"name":"SMPCS Packet-2"},"geometry":{"type":"MultiLineString","coordinates":[[[136.575,-5.05],[136.89,-4.55]],[[134.1,-4.153],[133.791,-3.679]],[[132.752,-5.635],[132.638,-5.386],[132.64,-5.129],[132.855,-4.427]],[[134.062,-0.861],[134.325,-0.725],[134.55,-0.556]],[[136.053,-1.187],[135.9,-1.4]],[[139.5,-1.681],[139.353,-2.175]],[[140.669,-2.592],[140.4,-2.131],[139.5,-1.681],[137.7,-1.231],[136.8,-1.231],[136.35,-1.4],[135.9,-1.4],[135.45,-1.175],[135.0,-0.781],[134.55,-0.556],[133.65,-0.331],[132.3,-0.106],[131.625,-0.331],[131.295,-0.882],[131.045,-0.757],[130.89,-0.69],[130.39,-0.69],[130.275,-1.231],[130.725,-1.681],[131.4,-2.581],[131.85,-3.03],[132.3,-3.255],[132.75,-3.255],[133.009,-3.111],[132.75,-3.479],[132.605,-3.679],[132.605,-4.178],[132.855,-4.427],[133.65,-4.377],[134.1,-4.153],[135.0,-4.714],[135.9,-4.826],[136.575,-5.05],[136.8,-6.169],[136.8,-8.401],[137.25,-8.846],[138.6,-9.068],[139.95,-8.846],[140.405,-8.499]],[[130.858,-0.383],[130.89,-0.49],[131.295,-0.882]]]}},{"type":"Feature","properties":{"name":"Luwuk Tutuyan Cable System (LTCS)"},"geometry":{"type":"MultiLineString","coordinates":[[[124.575,0.761],[124.65,0.569],[124.65,0.119],[123.75,-1.006],[123.3,-1.091],[123.075,-1.063],[122.793,-0.939]]]}},{"type":"Feature","properties":{"name":"Tarakan Selor Cable System (TSCS)"},"geometry":{"type":"MultiLineString","coordinates":[[[117.579,3.327],[117.619,3.154],[117.9,3.042],[117.9,2.817],[117.819,2.572]]]}},{"type":"Feature","properties":{"name":"Sumatera Bangka Cable System (SBCS)"},"geometry":{"type":"MultiLineString","coordinates":[[[105.164,-2.065],[104.962,-2.131],[104.85,-2.243],[104.738,-2.468],[104.625,-2.637],[104.625,-2.805],[104.757,-2.991]]]}},{"type":"Feature","properties":{"name":"S-U-B Cable System"},"geometry":{"type":"MultiLineString","coordinates":[[[114.604,-3.328],[114.187,-3.704],[113.962,-4.377],[113.737,-4.826],[113.175,-5.722],[112.725,-6.393],[112.725,-6.617],[112.747,-7.259],[112.894,-6.617],[113.062,-6.393],[114.47,-6.169],[116.071,-6.322],[117.38,-6.393],[118.8,-5.386],[119.412,-5.152],[118.8,-5.162],[116.583,-4.629],[114.75,-4.601],[114.412,-4.377],[114.3,-3.704],[114.604,-3.328]]]}},{"type":"Feature","properties":{"name":"INDIGO-West"},"geometry":{"type":"MultiLineString","coordinates":[[[103.646,1.339],[103.838,1.019],[103.838,0.794],[104.175,0.628],[104.85,0.512],[105.525,0.119],[106.2,-0.781],[106.985,-2.131],[107.1,-3.03],[107.1,-4.601],[106.65,-5.174],[106.828,-6.172]],[[106.65,-5.174],[106.404,-5.526],[105.75,-6.002],[105.3,-6.058],[104.85,-6.617],[104.85,-7.51],[105.3,-11.944],[107.0,-15.441]]]}},{"type":"Feature","properties":{"name":"Atisa"},"geometry":{"type":"MultiLineString","coordinates":[[[144.787,14.366],[145.012,14.366]],[[144.695,13.465],[144.675,13.929],[144.787,14.366],[145.125,14.91]]]}},{"type":"Feature","properties":{"name":"BALOK"},"geometry":{"type":"MultiLineString","coordinates":[[[115.747,-8.386],[115.933,-8.401],[116.047,-8.485]]]}},{"type":"Feature","properties":{"name":"Jambi-Batam Cable System (JIBA)"},"geometry":{"type":"MultiLineString","coordinates":[[[104.014,1.066],[104.007,0.906],[104.035,0.794],[104.034,0.628],[104.006,0.119],[104.006,-0.331],[103.467,-0.817]]]}},{"type":"Feature","properties":{"name":"Sistem Kabel Rakyat 1Malaysia (SKR1M)"},"geometry":{"type":"MultiLineString","coordinates":[[[103.851,2.296],[104.4,2.537],[105.75,3.211],[106.324,3.381],[108.178,4.303],[108.552,4.422],[108.969,4.245],[109.8,2.368],[110.137,1.918],[110.354,1.52],[110.475,1.918],[110.7,2.368],[111.6,3.042],[112.5,3.267],[113.068,3.197],[113.175,3.716],[113.4,4.165],[114.007,4.425],[114.075,5.062],[115.65,5.958],[116.074,5.981],[115.65,6.07],[110.7,5.51],[108.0,5.398],[105.3,4.614],[103.725,4.389],[103.395,4.116]]]}},{"type":"Feature","properties":{"name":"New Cross Pacific (NCP) Cable System"},"geometry":{"type":"MultiLineString","coordinates":[[[131.39998115096031,29.1482487910328],[128.7,26.159],[127.35,25.552],[126.0,25.349],[124.2,24.941],[122.85,25.043],[122.175,24.992],[121.801,24.864]]]}},{"type":"Feature","properties":{"name":"SEA-US"},"geometry":{"type":"MultiLineString","coordinates":[[[144.695,13.465],[144.9,13.273],[145.35,13.492]],[[125.066,1.379],[126.0,1.918],[126.45,3.267],[126.45,5.062],[133.2,9.08],[137.25,10.853],[144.0,13.054],[144.695,13.465]],[[125.613,7.08],[126.0,5.958],[126.45,5.062]],[[133.2,9.08],[133.65,8.191],[134.561,7.532]],[[137.25,10.853],[137.7,9.968],[138.061,9.444]]]}},{"type":"Feature","properties":{"name":"FASTER"},"geometry":{"type":"MultiLineString","coordinates":[[[128.24998338244836,28.55704546571133],[122.85,26.462],[121.95,25.755],[121.463,25.182]]]}},{"type":"Feature","properties":{"name":"North-West Cable System"},"geometry":{"type":"MultiLineString","coordinates":[[[130.5,-12.109],[130.5,-11.999],[130.632,-11.763]],[[120.59998880177636,-15.224032284647373],[121.612,-14.898],[122.287,-14.027],[123.3,-13.917],[124.425,-13.59],[126.45,-11.552],[127.35,-11.552],[129.037,-11.724],[129.206,-11.779],[129.938,-11.999],[130.5,-12.109],[130.843,-12.467]]]}},{"type":"Feature","properties":{"name":"SEAX-1"},"geometry":{"type":"MultiLineString","coordinates":[[[103.851,2.296],[104.329,2.14],[104.4,1.918],[104.288,1.468],[104.178,1.263],[104.138,1.263]],[[103.946,1.327],[104.138,1.263]],[[104.017,1.067],[104.016,1.223],[104.138,1.263]]]}},{"type":"Feature","properties":{"name":"Asia-America Gateway (AAG) Cable System"},"geometry":{"type":"MultiLineString","coordinates":[[[100.931,13.174],[100.688,12.835],[100.463,12.176],[100.35,11.295],[101.025,9.524],[103.275,7.968],[105.3,6.629],[108.0,5.958]],[[145.34997126865645,13.54681947716878],[144.9,13.328],[144.81,13.549],[144.0,13.492],[143.1,13.711],[138.6,14.801],[131.4,16.534],[126.0,18.252],[122.4,18.892],[121.096,19.019],[120.421,18.593],[120.15,16.965],[120.39,16.583],[119.925,16.965],[117.0,18.252],[115.312,19.529],[114.525,20.375],[113.794,21.635],[113.949,22.271],[113.737,21.635],[113.512,20.796],[113.4,18.252],[111.15,12.615],[110.7,9.968],[109.35,7.299],[108.0,5.958],[106.65,5.062],[105.75,4.614],[103.851,2.296],[104.4,2.256],[104.773,1.961],[104.681,1.468],[104.288,1.216],[104.154,1.198],[103.987,1.389]],[[109.35,7.299],[112.95,5.659],[114.3,5.062],[114.886,4.927]],[[107.079,10.342],[107.775,9.746],[108.675,9.524],[110.25,9.746],[110.7,9.968]]]}},{"type":"Feature","properties":{"name":"Australia-Japan Cable (AJC)"},"geometry":{"type":"MultiLineString","coordinates":[[[145.34997126865645,13.710817738179635],[144.808,13.544],[144.808,13.544],[144.808,13.544],[145.35,13.054]]]}},{"type":"Feature","properties":{"name":"APCN-2"},"geometry":{"type":"MultiLineString","coordinates":[[[134.99997860068837,29.135966407362506],[128.7,25.945],[127.35,25.336],[126.0,25.132],[125.1,25.132],[123.75,25.438],[122.85,25.641],[121.95,25.539],[121.463,25.169],[121.95,25.234],[122.287,24.929],[122.625,24.007],[122.175,22.456],[121.028,21.758],[120.128,21.758],[118.8,22.196],[118.35,22.404],[117.281,22.872],[116.678,23.342],[116.775,22.456],[116.55,20.783],[115.65,18.238],[114.75,14.788],[114.3,13.04],[113.4,9.954],[111.6,7.731],[109.125,5.944],[108.45,5.496],[108.0,5.16],[107.1,4.6],[105.75,3.814],[104.962,2.803],[104.485,1.454],[104.288,1.286],[104.159,1.197],[103.895,1.295]],[[103.895,1.309],[104.197,1.316],[104.288,1.37],[104.344,1.468],[104.625,2.368],[103.95,3.491],[103.388,4.128],[103.95,4.053],[108.0,7.076],[108.45,7.745],[109.8,9.968],[110.7,12.615],[113.175,18.252],[113.4,20.796],[113.681,21.635],[113.949,22.271],[114.244,21.844],[115.2,21.321],[116.55,21.111],[118.8,21.426],[121.028,21.248],[122.85,21.426],[123.75,22.053],[124.65,24.123],[124.819,25.552],[124.987,26.159],[124.65,30.514]],[[114.75,14.801],[117.0,13.929],[118.8,13.711],[120.15,13.601],[121.066,13.762],[120.15,13.383],[118.8,13.273],[117.0,13.054],[115.65,12.945],[114.75,12.945],[114.3,13.054]]]}},{"type":"Feature","properties":{"name":"Australia-Singapore Cable (ASC)"},"geometry":{"type":"MultiLineString","coordinates":[[[105.975,-10.399],[105.862,-10.399],[105.697,-10.437]],[[105.75,-5.946],[105.884,-6.074]],[[103.946,1.327],[103.781,1.019],[103.781,0.794],[104.175,0.513],[104.85,0.401],[105.3,0.119],[105.975,-0.781],[106.764,-2.131],[107.016,-3.03],[106.987,-4.601],[106.537,-5.162],[106.312,-5.498],[105.75,-5.946],[105.3,-6.169],[105.075,-6.617],[105.3,-7.51],[105.975,-10.399],[106.2,-11.944],[108.0,-15.441]]]}},{"type":"Feature","properties":{"name":"Batam Singapore Cable System (BSCS)"},"geometry":{"type":"MultiLineString","coordinates":[[[103.987,1.389],[103.95,1.185],[104.017,1.067]]]}},{"type":"Feature","properties":{"name":"FLAG North Asia Loop/REACH North Asia Loop"},"geometry":{"type":"MultiLineString","coordinates":[[[121.028,20.933],[118.8,21.111],[116.55,20.901],[115.2,21.111],[114.131,21.844],[113.932,22.228],[114.3,21.844],[115.2,21.426],[116.55,21.216],[118.8,21.635],[120.128,21.667],[121.028,21.667],[121.95,22.469],[122.4,24.02],[122.175,24.533],[121.801,24.864],[122.175,24.941],[122.85,24.941],[126.0,24.328],[128.7,24.123],[132.75,24.533],[137.25,27.764],[138.825,29.345]],[[127.12498417940834,28.55704546571133],[126.0,26.159],[125.662,25.552],[125.325,24.123],[124.425,22.053],[122.85,21.111],[121.028,20.933]]]}},{"type":"Feature","properties":{"name":"Guam Okinawa Kyushu Incheon (GOKI)"},"geometry":{"type":"MultiLineString","coordinates":[[[144.8,13.514],[144.45,13.929],[138.6,17.395],[131.85,21.635],[128.7,23.711],[127.575,24.941],[127.125,25.957],[127.125,26.563],[128.025,28.557]],[[127.125,25.957],[127.462,26.159],[127.681,26.212]]]}},{"type":"Feature","properties":{"name":"HANTRU1 Cable System"},"geometry":{"type":"MultiLineString","coordinates":[[[144.695,13.465],[144.844,13.273],[145.35,12.945]]]}},{"type":"Feature","properties":{"name":"i2i Cable Network (i2icn)"},"geometry":{"type":"MultiLineString","coordinates":[[[83.70001494206389,11.294709319565477],[89.1,9.968],[93.15,8.741],[95.4,7.745],[97.425,6.74],[99.45,5.286],[100.238,4.614],[100.688,3.267],[101.25,2.705],[102.15,2.143],[102.683,1.755],[103.341,1.356],[103.5,1.257],[103.646,1.339]]]}},{"type":"Feature","properties":{"name":"JaKa2LaDeMa"},"geometry":{"type":"MultiLineString","coordinates":[[[117.551,0.327],[117.9,0.119],[119.25,-1.006],[119.388,-1.142]],[[111.15,-3.479],[112.05,-3.928],[112.95,-3.928],[114.075,-3.704],[114.604,-3.328]],[[109.972,-1.859],[109.575,-1.906],[109.35,-2.131]],[[109.336,-0.027],[108.9,-0.444],[109.125,-1.681],[109.35,-2.131],[109.8,-3.03],[110.475,-3.479],[111.15,-3.479],[111.6,-3.255],[111.753,-2.849]],[[114.097,-8.615],[114.412,-8.894],[114.975,-8.894],[115.222,-8.657]],[[116.082,-8.586],[115.875,-8.566],[115.537,-8.596],[115.331,-8.537]]]}},{"type":"Feature","properties":{"name":"JAKABARE"},"geometry":{"type":"MultiLineString","coordinates":[[[104.85,1.356],[104.625,1.356],[104.202,1.329],[103.987,1.389]],[[104.133,1.174],[104.288,1.202],[104.625,1.3],[104.85,1.356],[105.3,1.243],[106.875,-0.331],[107.153,-2.131],[107.27,-3.03],[107.55,-4.601],[107.1,-5.274],[107.121,-5.981]],[[109.182,-0.061],[108.9,0.006],[106.875,-0.331]]]}},{"type":"Feature","properties":{"name":"Malaysia-Cambodia-Thailand (MCT) Cable"},"geometry":{"type":"MultiLineString","coordinates":[[[103.5,8.191],[101.925,9.524],[101.25,11.295],[101.138,12.176],[101.277,12.671]],[[103.507,10.63],[103.613,9.524],[103.5,8.191],[103.95,5.51],[103.725,4.614],[103.395,4.116]]]}},{"type":"Feature","properties":{"name":"Mariana-Guam Cable"},"geometry":{"type":"MultiLineString","coordinates":[[[145.0124715077445,13.710817738179635],[144.81,13.549]]]}},{"type":"Feature","properties":{"name":"Mataram Kupang Cable System (MKCS)"},"geometry":{"type":"MultiLineString","coordinates":[[[118.082,-8.841],[117.9,-8.587],[117.562,-8.364],[117.337,-8.178],[117.225,-7.733]],[[116.655,-8.537],[116.55,-8.253],[116.55,-8.03],[116.775,-7.807],[117.225,-7.733],[118.237,-7.733],[118.575,-7.956],[118.76,-8.319],[118.772,-8.392],[118.745,-8.464]],[[120.253,-9.646],[120.6,-9.29],[120.6,-9.068]],[[123.583,-10.183],[123.3,-10.011],[122.85,-9.919],[121.725,-9.179],[121.643,-8.846],[121.5,-9.068],[120.6,-9.068],[119.25,-9.068],[118.712,-8.796]]]}},{"type":"Feature","properties":{"name":"Matrix Cable System"},"geometry":{"type":"MultiLineString","coordinates":[[[104.017,1.067],[104.02,1.213],[104.166,1.231],[104.288,1.188],[104.625,1.187],[104.85,1.131],[105.3,1.131]],[[105.3,1.131],[104.85,1.243],[104.625,1.229],[104.194,1.295],[103.987,1.389]],[[106.833,-6.172],[106.875,-5.274],[107.325,-4.601],[107.213,-3.03],[107.098,-2.131],[106.762,-0.331],[105.3,1.131]]]}},{"type":"Feature","properties":{"name":"Moratelindo International Cable System-1 (MIC-1)"},"geometry":{"type":"MultiLineString","coordinates":[[[103.987,1.389],[103.978,1.185],[104.017,1.067]]]}},{"type":"Feature","properties":{"name":"Palawan-Iloilo Cable System"},"geometry":{"type":"MultiLineString","coordinates":[[[119.5,10.82],[120.15,10.853],[121.05,11.074],[121.5,10.853],[121.941,10.749]]]}},{"type":"Feature","properties":{"name":"PIPE Pacific Cable-1 (PPC-1)"},"geometry":{"type":"MultiLineString","coordinates":[[[145.1249714280484,12.615395567393394],[144.787,13.273],[144.695,13.465]]]}},{"type":"Feature","properties":{"name":"SAFE"},"geometry":{"type":"MultiLineString","coordinates":[[[81.00001685476798,1.468426767331968],[85.5,-1.681],[90.0,-0.781],[92.7,3.716],[94.275,4.713],[95.453,5.818],[97.425,5.734],[99.675,5.398],[100.41,5.368]]]}},{"type":"Feature","properties":{"name":"Taiwan Strait Express-1 (TSE-1)"},"geometry":{"type":"MultiLineString","coordinates":[[[119.608,25.781],[119.925,25.805],[120.825,25.552],[121.275,25.349],[121.463,25.182]]]}},{"type":"Feature","properties":{"name":"Tata TGN-Pacific"},"geometry":{"type":"MultiLineString","coordinates":[[[137.58747676768036,34.31215165223547],[138.6,24.123],[139.95,21.635],[142.2,16.965],[143.325,15.236],[144.225,13.929],[144.695,13.465]]]}},{"type":"Feature","properties":{"name":"Tata TGN-Tata Indicom"},"geometry":{"type":"MultiLineString","coordinates":[[[83.70001494206389,10.41081650540272],[89.1,9.08],[93.15,8.518],[95.4,7.522],[97.425,6.573],[99.225,5.286],[100.013,4.614],[100.575,3.267],[101.25,2.593],[102.15,2.087],[102.683,1.727],[103.341,1.328],[103.5,1.243],[103.92,1.172]],[[103.92,1.172],[103.987,1.389]]]}},{"type":"Feature","properties":{"name":"Thailand-Indonesia-Singapore (TIS)"},"geometry":{"type":"MultiLineString","coordinates":[[[104.017,1.067],[104.034,1.291],[103.987,1.389],[104.192,1.303],[104.288,1.356],[104.372,1.468],[104.652,2.368],[104.386,5.398],[103.035,6.893],[101.7,7.02],[100.595,7.199]]]}},{"type":"Feature","properties":{"name":"Trans-Pacific Express (TPE) Cable System"},"geometry":{"type":"MultiLineString","coordinates":[[[123.74998657028833,28.161052262220792],[121.95,26.563],[121.5,25.755],[121.463,25.182],[121.612,25.755],[121.95,26.361],[125.262,27.59],[130.5,30.708]]]}},{"type":"Feature","properties":{"name":"Cross-Straits Cable Network (CSCN)"},"geometry":{"type":"MultiLineString","coordinates":[[[118.307,24.476],[118.304,24.516],[118.301,24.557]],[[118.189,24.494],[118.239,24.475],[118.29,24.456]]]}},{"type":"Feature","properties":{"name":"Dumai-Melaka Cable System (DMCS)"},"geometry":{"type":"MultiLineString","coordinates":[[[101.448,1.666],[101.419,2.143],[101.813,2.256],[102.221,2.273]]]}},{"type":"Feature","properties":{"name":"Pacific Light Cable Network (PLCN)"},"geometry":{"type":"MultiLineString","coordinates":[[[126.0,21.006],[130.95,22.469],[132.75,23.299],[138.6,25.755],[160.2,40.044]],[[126.0,21.006],[124.149,23.552],[122.85,24.533],[122.175,24.788],[121.801,24.864]],[[126.0,21.006],[124.65,19.246],[123.3,17.824],[122.4,16.102],[122.175,15.886],[121.95,15.778],[121.56,15.762]]]}},{"type":"Feature","properties":{"name":"EAC-C2C"},"geometry":{"type":"MultiLineString","coordinates":[[[120.128,21.458],[118.8,21.531],[117.45,21.844],[115.65,22.053],[114.975,22.365],[114.259,22.318]],[[114.203,22.222],[114.637,20.796],[115.425,18.238],[117.0,16.102],[119.25,14.366],[120.15,13.82],[121.066,13.762]],[[121.463,25.169],[121.387,25.742],[121.95,26.751],[123.525,28.149]],[[138.82497589102445,28.544693071144245],[137.25,26.952],[132.75,23.698],[130.95,22.872],[126.0,21.203],[122.85,20.362],[121.113,19.189],[120.243,18.602],[119.119,17.549],[119.025,15.222],[119.587,14.57],[120.15,13.916],[121.066,13.749],[120.15,13.26],[118.8,12.602],[116.1,9.066],[114.075,7.731],[110.7,5.944],[110.025,5.496],[108.0,4.6],[107.1,4.039],[105.75,3.253],[105.244,2.803],[104.625,1.454],[104.288,1.216],[104.164,1.21],[103.987,1.375],[104.178,1.249],[104.288,1.3],[104.428,1.454],[104.794,2.803],[105.75,4.151],[107.1,4.936],[108.0,5.608],[110.475,7.731],[111.712,9.954],[112.725,12.602],[114.3,17.095],[114.525,18.238],[114.187,20.783],[114.259,22.305]],[[103.987,1.389],[104.187,1.29],[104.288,1.342],[104.4,1.468],[104.738,2.817],[105.75,4.277],[107.1,5.062],[108.0,5.734],[110.25,7.745],[111.487,9.968],[112.5,12.615],[114.075,17.109],[114.3,18.252],[114.075,20.796],[114.203,22.222]],[[121.383,25.15],[121.725,25.755],[121.95,26.058],[122.85,26.26],[128.7,25.755],[131.4,26.159],[132.75,26.159]],[[114.259,22.318],[114.975,22.261],[115.65,21.949],[117.45,21.635],[118.8,21.006],[121.028,20.828],[122.85,20.796],[126.0,22.053],[128.7,23.299],[132.75,26.159]],[[114.259,22.318],[114.975,22.313],[115.65,22.001],[117.45,21.74],[118.8,21.216],[121.028,21.038],[122.85,21.216],[124.2,22.053],[125.1,24.123],[125.381,25.552],[125.662,26.159],[126.675,28.557]],[[137.24997700676838,29.344566989489813],[132.75,26.159]],[[125.1,24.11],[123.75,25.234],[122.85,25.539],[121.95,25.438],[121.383,25.137],[121.95,25.336],[122.4,24.929],[122.85,24.007],[122.4,22.456],[121.05,19.728],[119.769,18.516],[118.936,17.742],[118.8,15.222],[119.362,14.57],[120.15,14.352],[120.82,14.273],[120.15,14.025],[118.8,13.04],[115.65,9.066],[113.85,7.731],[110.475,5.944],[109.8,5.496],[108.0,4.712],[107.1,4.151],[105.75,3.365],[105.187,2.803],[104.597,1.454],[104.288,1.23],[104.173,1.236],[103.987,1.375]],[[120.128,21.458],[120.375,21.635],[120.544,22.053],[120.662,22.249]]]}},{"type":"Feature","properties":{"name":"Asia Submarine-cable Express (ASE)/Cahaya Malaysia"},"geometry":{"type":"MultiLineString","coordinates":[[[130.902,23.866],[128.7,25.552],[128.025,25.957],[127.701,26.088]],[[105.075,2.803],[104.798,2.513],[104.4,2.424],[103.851,2.296]],[[126.857,19.466],[125.55,19.304],[120.97,19.751],[120.321,19.447],[119.449,18.713],[118.55,17.891],[117.563,15.44],[116.212,12.602],[114.75,9.066],[112.95,7.731],[110.025,5.944],[109.35,5.496],[108.0,4.936],[107.1,4.375],[105.75,3.59],[105.075,2.803],[104.541,1.454],[104.288,1.272],[104.199,1.308],[103.986,1.371]],[[137.24997700676838,28.55704546571133],[132.75,25.349],[130.95,23.917],[126.857,19.48],[124.2,15.236],[123.525,14.366],[122.95,14.117]],[[119.449,18.713],[118.35,20.164],[117.0,21.111],[115.65,21.792],[114.975,22.157],[114.259,22.318]]]}},{"type":"Feature","properties":{"name":"PLDT Domestic Fiber Optic Network (DFON)"},"geometry":{"type":"MultiLineString","coordinates":[[[124.613,11.007],[124.65,10.743],[124.65,10.411],[124.762,9.968],[125.044,9.746],[125.381,9.302],[125.541,8.948],[125.325,9.302],[125.1,9.524],[124.65,9.413],[124.537,9.08],[124.706,8.636],[124.632,8.454],[124.425,8.636],[124.2,8.636],[124.058,8.326],[123.85,8.15],[123.975,8.413],[123.75,8.802],[123.412,9.08],[123.281,9.296]],[[124.613,11.007],[124.537,10.743],[124.425,10.521],[124.2,10.411],[123.895,10.31],[124.087,10.411],[124.19,10.932],[124.087,11.295],[123.75,11.295],[123.3,10.95]],[[120.623,14.088],[120.487,13.929],[120.6,13.711],[121.05,13.547],[121.456,13.492],[121.569,13.273],[121.465,13.046],[121.669,12.835],[121.781,12.615],[121.95,12.176],[122.062,12.066],[122.4,11.956],[122.75,11.583],[122.962,11.846],[123.3,11.846],[123.412,11.956],[123.646,12.367],[123.581,12.506],[123.525,12.615],[123.525,12.835],[123.637,13.054],[123.744,13.139],[123.975,13.164],[124.2,13.054],[124.199,12.618],[124.2,12.286],[124.425,12.121],[124.6,12.07]]]}},{"type":"Feature","properties":{"name":"Tata TGN-Intra Asia (TGN-IA)"},"geometry":{"type":"MultiLineString","coordinates":[[[120.22,18.785],[120.6,18.785],[121.05,18.785],[121.513,18.418]],[[114.184,22.25],[114.75,21.896],[115.65,21.635],[117.0,21.321],[118.35,20.586],[120.15,19.741],[121.05,19.529]],[[103.987,1.375],[104.183,1.262],[104.288,1.244],[104.569,1.454],[105.131,2.803],[105.75,3.477],[107.1,4.263],[108.0,4.824],[109.575,5.496],[110.25,5.944],[113.175,7.731],[114.975,9.066],[116.55,12.602],[118.013,15.44],[119.028,17.655],[120.013,18.602],[121.05,19.516],[122.85,19.728],[126.0,20.362],[130.95,21.203],[138.6,24.11]],[[107.079,10.342],[107.775,9.635],[108.675,9.302],[111.6,9.302],[113.4,9.08],[114.975,9.08]]]}},{"type":"Feature","properties":{"name":"Asia Pacific Gateway (APG)"},"geometry":{"type":"MultiLineString","coordinates":[[[125.55,24.123],[122.85,24.839],[122.175,24.89],[121.801,24.864]],[[112.05,12.615],[111.6,13.054],[110.7,14.801],[109.8,15.561],[108.9,15.886],[108.192,16.043]],[[108.0,6.852],[105.3,7.076],[103.049,7.228],[101.7,7.187],[100.595,7.199]],[[113.85,18.252],[113.85,20.796],[114.259,22.318]],[[103.388,4.128],[103.95,3.94],[106.2,5.51],[108.0,6.852],[111.037,9.968],[112.05,12.615],[113.85,18.252],[117.0,19.741],[120.15,20.375],[121.05,20.586],[122.85,21.006],[124.65,22.053],[125.55,24.123],[125.944,25.552],[126.337,26.159],[127.575,28.557]],[[103.987,1.389],[104.187,1.303],[104.485,1.468],[105.3,2.368],[106.2,4.614],[106.2,5.51]]]}},{"type":"Feature","properties":{"name":"SeaMeWe-4"},"geometry":{"type":"MultiLineString","coordinates":[[[100.066,6.614],[100.058,6.354],[99.992,6.206],[99.674,5.956],[99.0,5.846],[97.425,6.405]],[[103.646,1.339],[103.5,1.229],[103.341,1.3],[102.683,1.699],[102.15,2.031],[101.25,2.48],[100.463,3.267],[99.788,4.614],[99.0,5.286],[97.425,6.405],[95.151,8.766],[93.145,9.524],[91.8,10.411],[90.0,12.396],[88.2,13.492],[83.7,13.929]],[[91.995,21.429],[91.8,19.953],[88.2,13.492]],[[101.25,2.48],[101.7,2.368],[102.221,2.273]]]}},{"type":"Feature","properties":{"name":"Batam-Rengit Cable System (BRCS)"},"geometry":{"type":"MultiLineString","coordinates":[[[103.148,1.677],[103.341,1.384],[103.5,1.271],[103.669,1.075],[103.781,1.019],[104.014,1.066]]]}},{"type":"Feature","properties":{"name":"Southeast Asia-Japan Cable (SJC)"},"geometry":{"type":"MultiLineString","coordinates":[[[116.678,23.355],[117.169,22.885],[118.35,22.105],[120.15,20.164]],[[115.2,14.801],[117.0,14.148],[118.8,13.929],[120.15,14.148],[120.623,14.088]],[[116.1,18.252],[115.2,19.529],[114.75,20.796],[114.3,21.635],[114.203,22.222]],[[103.646,1.325],[104.168,1.223],[104.288,1.258],[104.513,1.454],[105.019,2.803],[105.75,3.702],[107.1,4.487],[108.0,5.048],[108.675,5.496],[109.35,5.944],[111.825,7.731],[113.738,9.954],[114.75,13.04],[115.2,14.788],[116.1,18.238],[120.15,20.151],[121.05,20.151],[122.85,20.573],[126.0,21.413],[130.95,23.286],[132.75,24.11],[137.25,27.352],[138.825,28.939]],[[114.571,4.704],[114.3,5.062],[111.825,7.745]]]}},{"type":"Feature","properties":{"name":"Asia Africa Europe-1 (AAE-1)"},"geometry":{"type":"MultiLineString","coordinates":[[[107.079,10.342],[107.775,9.857],[108.675,9.746],[110.25,9.968]],[[94.391,16.858],[93.6,16.75],[92.25,14.801],[90.9,9.524],[90.45,6.182],[90.0,4.614]],[[100.066,6.614],[100.35,6.908],[100.595,7.199]],[[103.507,10.63],[103.725,9.524],[103.725,8.191],[103.049,7.34]],[[97.425,5.958],[99.0,6.07],[100.066,6.614],[100.238,6.908],[100.595,7.199],[101.7,7.243],[103.049,7.34],[105.3,7.299],[108.0,8.079],[110.25,9.968],[111.6,12.615],[113.625,18.252],[113.737,20.796],[114.26,22.208]],[[81.00001685476798,3.266814816815666],[85.5,3.716],[90.0,4.614],[92.7,5.062],[94.275,6.057],[95.38,6.387],[95.381,6.387],[95.382,6.387],[95.383,6.388],[95.383,6.388],[95.384,6.388],[95.385,6.388],[95.386,6.388],[95.387,6.389],[95.387,6.389],[95.388,6.389],[95.389,6.389],[95.39,6.389],[95.391,6.389],[95.391,6.389],[95.392,6.389],[95.393,6.39],[95.394,6.39],[95.395,6.39],[95.395,6.39],[95.396,6.39],[95.397,6.39],[95.398,6.39],[95.399,6.39],[95.399,6.39],[95.4,6.39],[95.401,6.39],[95.402,6.39],[95.403,6.39],[95.403,6.39],[95.404,6.39],[95.405,6.39],[95.406,6.39],[95.407,6.39],[95.407,6.39],[95.408,6.39],[95.409,6.39],[95.41,6.39],[95.411,6.39],[95.411,6.39],[95.412,6.39],[95.413,6.39],[95.414,6.39],[95.415,6.389],[95.415,6.389],[95.416,6.389],[95.417,6.389],[95.418,6.389],[95.418,6.389],[95.42,6.388],[95.42,6.388],[97.425,5.958],[99.675,5.734],[100.41,5.368]]]}},{"type":"Feature","properties":{"name":"Bay of Bengal Gateway (BBG)"},"geometry":{"type":"MultiLineString","coordinates":[[[83.70001494206389,12.175887185507976],[89.1,10.853],[93.369,9.586],[95.427,9.107],[97.425,7.131],[99.675,5.622],[100.41,5.368]],[[97.425,7.131],[95.4,6.505],[94.275,6.38],[92.7,5.51],[90.0,5.51],[85.5,4.614],[81.0,3.491]]]}},{"type":"Feature","properties":{"name":"JaSuKa"},"geometry":{"type":"MultiLineString","coordinates":[[[107.121,-5.981],[107.212,-5.274],[107.662,-4.601],[107.326,-3.03],[107.305,-2.784],[107.411,-2.628],[107.663,-2.767],[107.663,-2.518],[107.761,-2.238],[108.225,-1.231],[108.9,-0.219],[109.336,-0.027],[108.9,0.119],[104.85,0.737],[104.4,0.794],[104.288,0.906],[104.175,0.962],[104.017,1.067],[103.884,1.159],[103.5,1.159],[103.341,1.131],[102.683,1.474],[102.15,1.637],[101.728,1.693],[101.448,1.666]],[[105.254,-5.409],[105.356,-5.722],[105.88,-5.868],[106.425,-5.722],[106.833,-6.172]]]}},{"type":"Feature","properties":{"name":"Indonesia Global Gateway (IGG) System"},"geometry":{"type":"MultiLineString","coordinates":[[[116.831,-1.265],[117.081,-1.403],[117.852,-1.515]],[[120.6,1.918],[118.8,2.817],[117.9,3.154],[117.675,3.154],[117.579,3.327]],[[117.45,-4.377],[118.8,-4.938],[119.412,-5.152]],[[116.583,-5.749],[116.55,-6.617],[115.875,-8.178],[115.844,-8.371],[115.692,-8.406]],[[114.47,-5.946],[113.4,-6.617],[113.283,-6.902]],[[104.017,1.067],[103.899,1.191]],[[103.646,1.339],[103.899,1.191]],[[107.212,-4.601],[106.762,-5.274],[106.833,-6.129]],[[101.448,1.666],[101.728,1.749],[102.15,1.75],[102.683,1.53],[103.341,1.215],[103.5,1.187],[103.899,1.191],[104.138,1.238],[104.288,1.174],[104.625,1.131],[104.85,1.019],[105.3,1.019],[106.65,-0.331],[107.037,-2.131],[107.153,-3.03],[107.212,-4.601],[112.05,-5.05],[114.47,-5.946],[116.583,-5.749],[117.45,-4.377],[117.6,-2.73],[117.852,-1.515],[118.541,-0.811],[119.25,0.569],[119.475,1.019],[120.6,1.918],[124.2,1.918],[124.84,1.491]]]}},{"type":"Feature","properties":{"name":"Jakarta-Bangka-Bintan-Batam-Singapore (B3JS)"},"geometry":{"type":"MultiLineString","coordinates":[[[106.828,-6.172],[106.312,-5.274],[106.537,-4.601],[106.537,-3.479],[106.547,-3.08],[106.2,-2.581],[105.75,-1.906],[105.583,-1.554],[105.412,-1.231],[105.075,0.119],[104.85,0.29],[104.175,0.399],[103.669,0.794],[103.669,1.019],[103.878,1.191],[104.017,1.067],[103.978,1.185],[103.946,1.327],[104.011,1.234],[104.15,1.185],[104.344,1.202],[104.426,1.137]]]}},{"type":"Feature","properties":{"name":"SeaMeWe-5"},"geometry":{"type":"MultiLineString","coordinates":[[[101.25,2.368],[101.363,2.143],[101.448,1.666]],[[99.563,4.614],[98.676,3.752]],[[94.391,16.858],[93.6,16.965],[91.8,17.824]],[[102.221,2.273],[102.15,1.974]],[[90.117,21.821],[90.9,20.375],[91.8,17.824],[91.8,14.801],[90.45,9.524],[90.225,7.968],[90.0,7.299]],[[82.80001557963192,5.510071711803246],[85.5,6.405],[90.0,7.299],[92.7,6.852],[94.275,6.852],[95.4,6.74],[97.425,6.237],[98.775,5.286],[99.563,4.614],[100.35,3.267],[101.25,2.368],[102.15,1.974],[102.683,1.671],[103.341,1.272],[103.5,1.215],[103.646,1.339]]]}},{"type":"Feature","properties":{"name":"Batam Dumai Melaka (BDM)"},"geometry":{"type":"MultiLineString","coordinates":[[[101.448,1.666],[101.728,1.778],[101.925,1.918],[102.221,2.273]],[[104.017,1.067],[103.5,1.173],[103.341,1.187],[102.683,1.502],[102.15,1.693],[101.728,1.721],[101.448,1.666]]]}},{"type":"Feature","properties":{"name":"PGASCOM"},"geometry":{"type":"MultiLineString","coordinates":[[[103.706,1.259],[103.866,1.185],[104.017,1.067]],[[103.467,-0.817],[103.894,-0.331],[103.894,0.119],[103.556,0.794],[103.669,1.019],[104.017,1.067]]]}},{"type":"Feature","properties":{"name":"Boracay-Palawan Submarine Cable System (BPSCS)"},"geometry":{"type":"MultiLineString","coordinates":[[[121.945,11.949],[121.936,11.938],[121.951,11.931]],[[120.201,12.005],[120.375,11.846],[120.6,11.736]],[[119.5,10.82],[120.15,10.976],[120.6,11.736],[120.825,12.176],[121.05,12.363]]]}}]}